{"type": "FeatureCollection", "features": [{"type": "Feature", "properties": {"name": "St. Paul's", "lines": "Central", "accessible": "Not Accessible"}, "geometry": {"type": "Point", "coordinates": [-0.097491844834556, 51.5149545361712, 0.0]}}, {"type": "Feature", "properties": {"name": "Mile End", "lines": "District, Hammersmith & City, Central", "accessible": "Partially Accessible - Interchange Only"}, "geometry": {"type": "Point", "coordinates": [-0.033740698179592, 51.5252362552673, 0.0]}}, {"type": "Feature", "properties": {"name": "Bethnal Green", "lines": "Central", "accessible": "Not Accessible"}, "geometry": {"type": "Point", "coordinates": [-0.054663268097705, 51.5272388869757, 0.0]}}, {"type": "Feature", "properties": {"name": "Leyton", "lines": "Central", "accessible": "Not Accessible"}, "geometry": {"type": "Point", "coordinates": [-0.00545943464187, 51.5566054289395, 0.0]}}, {"type": "Feature", "properties": {"name": "Snaresbrook", "lines": "Central", "accessible": "Not Accessible"}, "geometry": {"type": "Point", "coordinates": [0.02142019395183, 51.5806784712596, 0.0]}}, {"type": "Feature", "properties": {"name": "Leytonstone", "lines": "Central", "accessible": "Not Accessible"}, "geometry": {"type": "Point", "coordinates": [0.008210661403407, 51.5683222558993, 0.0]}}, {"type": "Feature", "properties": {"name": "Wanstead", "lines": "Central", "accessible": "Not Accessible"}, "geometry": {"type": "Point", "coordinates": [0.028647479421731, 51.5756029971839, 0.0]}}, {"type": "Feature", "properties": {"name": "South Woodford", "lines": "Central", "accessible": "Partially Accessible"}, "geometry": {"type": "Point", "coordinates": [0.027388896244925, 51.5918936591862, 0.0]}}, {"type": "Feature", "properties": {"name": "Newbury Park", "lines": "Central", "accessible": "Not Accessible"}, "geometry": {"type": "Point", "coordinates": [0.089947289618984, 51.5757067432974, 0.0]}}, {"type": "Feature", "properties": {"name": "Barkingside", "lines": "Central", "accessible": "Partially Accessible"}, "geometry": {"type": "Point", "coordinates": [0.088651775446433, 51.5857049575358, 0.0]}}, {"type": "Feature", "properties": {"name": "Fairlop", "lines": "Central", "accessible": "Not Accessible"}, "geometry": {"type": "Point", "coordinates": [0.091079822153104, 51.5955594831277, 0.0]}}, {"type": "Feature", "properties": {"name": "Woodford", "lines": "Central", "accessible": "Fully Accessible"}, "geometry": {"type": "Point", "coordinates": [0.03403824393238, 51.6068624242835, 0.0]}}, {"type": "Feature", "properties": {"name": "Roding Valley", "lines": "Central", "accessible": "Fully Accessible"}, "geometry": {"type": "Point", "coordinates": [0.04373608548952, 51.6170800915503, 0.0]}}, {"type": "Feature", "properties": {"name": "Chigwell", "lines": "Central", "accessible": "Not Accessible"}, "geometry": {"type": "Point", "coordinates": [0.075621709630792, 51.6176545264783, 0.0]}}, {"type": "Feature", "properties": {"name": "Paddington", "lines": "Hammersmith & City, District, Circle, Bakerloo", "accessible": "Partially Accessible"}, "geometry": {"type": "Point", "coordinates": [-0.17596495802982, 51.516563062743, 0.0]}}, {"type": "Feature", "properties": {"name": "Plaistow", "lines": "District, Hammersmith & City", "accessible": "Not Accessible"}, "geometry": {"type": "Point", "coordinates": [0.017016176421667, 51.5312327784818, 0.0]}}, {"type": "Feature", "properties": {"name": "Upton Park", "lines": "District, Hammersmith & City", "accessible": "Not Accessible"}, "geometry": {"type": "Point", "coordinates": [0.03523731439865, 51.5353811421301, 0.0]}}, {"type": "Feature", "properties": {"name": "East Ham", "lines": "District, Hammersmith & City", "accessible": "Fully Accessible"}, "geometry": {"type": "Point", "coordinates": [0.052853536469472, 51.5394080163376, 0.0]}}, {"type": "Feature", "properties": {"name": "Ruislip Gardens", "lines": "Central", "accessible": "Not Accessible"}, "geometry": {"type": "Point", "coordinates": [-0.410696109804698, 51.56077688512, 0.0]}}, {"type": "Feature", "properties": {"name": "South Ruislip", "lines": "Central", "accessible": "Not Accessible"}, "geometry": {"type": "Point", "coordinates": [-0.398845328625941, 51.556861433018, 0.0]}}, {"type": "Feature", "properties": {"name": "Northolt", "lines": "Central", "accessible": "Not Accessible"}, "geometry": {"type": "Point", "coordinates": [-0.368628937494066, 51.5482602616564, 0.0]}}, {"type": "Feature", "properties": {"name": "West Ruislip", "lines": "Central", "accessible": "Not Accessible"}, "geometry": {"type": "Point", "coordinates": [-0.437626140162556, 51.5696310313101, 0.0]}}, {"type": "Feature", "properties": {"name": "Upney", "lines": "District", "accessible": "Fully Accessible"}, "geometry": {"type": "Point", "coordinates": [0.101580801616486, 51.5383556220537, 0.0]}}, {"type": "Feature", "properties": {"name": "Brent Cross", "lines": "Northern", "accessible": "Not Accessible"}, "geometry": {"type": "Point", "coordinates": [-0.213759581683029, 51.5766720110708, 0.0]}}, {"type": "Feature", "properties": {"name": "Colindale", "lines": "Northern", "accessible": "Not Accessible"}, "geometry": {"type": "Point", "coordinates": [-0.249912887893222, 51.5954484631501, 0.0]}}, {"type": "Feature", "properties": {"name": "Burnt Oak", "lines": "Northern", "accessible": "Not Accessible"}, "geometry": {"type": "Point", "coordinates": [-0.263969437496311, 51.6028368571574, 0.0]}}, {"type": "Feature", "properties": {"name": "Mill Hill East", "lines": "Northern", "accessible": "Not Accessible"}, "geometry": {"type": "Point", "coordinates": [-0.21003599178201, 51.6082365189399, 0.0]}}, {"type": "Feature", "properties": {"name": "Golders Green", "lines": "Northern", "accessible": "Fully Accessible"}, "geometry": {"type": "Point", "coordinates": [-0.193997309394488, 51.5722889058366, 0.0]}}, {"type": "Feature", "properties": {"name": "Finchley Central", "lines": "Northern", "accessible": "Fully Accessible"}, "geometry": {"type": "Point", "coordinates": [-0.19252922549939, 51.6009348679323, 0.0]}}, {"type": "Feature", "properties": {"name": "Sudbury Hill", "lines": "Piccadilly", "accessible": "Not Accessible"}, "geometry": {"type": "Point", "coordinates": [-0.33660181396072, 51.5569667160283, 0.0]}}, {"type": "Feature", "properties": {"name": "Sudbury Town", "lines": "Piccadilly", "accessible": "Fully Accessible"}, "geometry": {"type": "Point", "coordinates": [-0.315723404663266, 51.5508072804286, 0.0]}}, {"type": "Feature", "properties": {"name": "South Ealing", "lines": "Piccadilly", "accessible": "Not Accessible"}, "geometry": {"type": "Point", "coordinates": [-0.30748301640737, 51.5009003575605, 0.0]}}, {"type": "Feature", "properties": {"name": "Park Royal", "lines": "Piccadilly", "accessible": "Not Accessible"}, "geometry": {"type": "Point", "coordinates": [-0.283944537895108, 51.5264813145411, 0.0]}}, {"type": "Feature", "properties": {"name": "Alperton", "lines": "Piccadilly", "accessible": "Not Accessible"}, "geometry": {"type": "Point", "coordinates": [-0.299926137316424, 51.5407323726746, 0.0]}}, {"type": "Feature", "properties": {"name": "Hyde Park Corner", "lines": "Piccadilly", "accessible": "Not Accessible"}, "geometry": {"type": "Point", "coordinates": [-0.154124887061521, 51.5027528559006, 0.0]}}, {"type": "Feature", "properties": {"name": "Knightsbridge", "lines": "Piccadilly", "accessible": "Not Accessible"}, "geometry": {"type": "Point", "coordinates": [-0.161441486053111, 51.5012424520044, 0.0]}}, {"type": "Feature", "properties": {"name": "Leicester Square", "lines": "Piccadilly, Northern", "accessible": "Not Accessible"}, "geometry": {"type": "Point", "coordinates": [-0.128306746943324, 51.5114061801348, 0.0]}}, {"type": "Feature", "properties": {"name": "Covent Garden", "lines": "Piccadilly", "accessible": "Not Accessible"}, "geometry": {"type": "Point", "coordinates": [-0.124341543174305, 51.5131460789873, 0.0]}}, {"type": "Feature", "properties": {"name": "Russell Square", "lines": "Piccadilly", "accessible": "Not Accessible"}, "geometry": {"type": "Point", "coordinates": [-0.124244105841182, 51.5230609966915, 0.0]}}, {"type": "Feature", "properties": {"name": "Holloway Road", "lines": "Piccadilly", "accessible": "Not Accessible"}, "geometry": {"type": "Point", "coordinates": [-0.113237215123649, 51.5527582103854, 0.0]}}, {"type": "Feature", "properties": {"name": "Arsenal", "lines": "Piccadilly", "accessible": "Not Accessible"}, "geometry": {"type": "Point", "coordinates": [-0.107258995220346, 51.5586182630652, 0.0]}}, {"type": "Feature", "properties": {"name": "Arnos Grove", "lines": "Piccadilly", "accessible": "Not Accessible"}, "geometry": {"type": "Point", "coordinates": [-0.133019683101503, 51.6164552153248, 0.0]}}, {"type": "Feature", "properties": {"name": "Southgate", "lines": "Piccadilly", "accessible": "Not Accessible"}, "geometry": {"type": "Point", "coordinates": [-0.127736382206168, 51.6322612488299, 0.0]}}, {"type": "Feature", "properties": {"name": "Cockfosters", "lines": "Piccadilly", "accessible": "Not Accessible"}, "geometry": {"type": "Point", "coordinates": [-0.149137109613063, 51.6515315378229, 0.0]}}, {"type": "Feature", "properties": {"name": "Oakwood", "lines": "Piccadilly", "accessible": "Fully Accessible"}, "geometry": {"type": "Point", "coordinates": [-0.131242593808805, 51.6473364234459, 0.0]}}, {"type": "Feature", "properties": {"name": "Manor House", "lines": "Piccadilly", "accessible": "Not Accessible"}, "geometry": {"type": "Point", "coordinates": [-0.096038962334246, 51.5707535853732, 0.0]}}, {"type": "Feature", "properties": {"name": "Temple", "lines": "District, Circle", "accessible": "Not Accessible"}, "geometry": {"type": "Point", "coordinates": [-0.114226122796381, 51.5109859451486, 0.0]}}, {"type": "Feature", "properties": {"name": "Blackfriars", "lines": "District, Circle", "accessible": "Fully Accessible"}, "geometry": {"type": "Point", "coordinates": [-0.103603883187671, 51.5116263548801, 0.0]}}, {"type": "Feature", "properties": {"name": "Mansion House", "lines": "District, Circle", "accessible": "Not Accessible"}, "geometry": {"type": "Point", "coordinates": [-0.094079885333069, 51.5118179804533, 0.0]}}, {"type": "Feature", "properties": {"name": "Cannon Street", "lines": "District, Circle", "accessible": "Partially Accessible"}, "geometry": {"type": "Point", "coordinates": [-0.090385961310068, 51.5114746298082, 0.0]}}, {"type": "Feature", "properties": {"name": "Tower Hill", "lines": "District, Circle", "accessible": "Not Accessible"}, "geometry": {"type": "Point", "coordinates": [-0.076500085324855, 51.5099465212841, 0.0]}}, {"type": "Feature", "properties": {"name": "Aldgate", "lines": "Metropolitan, Circle", "accessible": "Not Accessible"}, "geometry": {"type": "Point", "coordinates": [-0.075822667815969, 51.5144938991707, 0.0]}}, {"type": "Feature", "properties": {"name": "Liverpool Street", "lines": "Metropolitan, Central, Circle, Hammersmith & City", "accessible": "Partially Accessible"}, "geometry": {"type": "Point", "coordinates": [-0.083187103332268, 51.5173539786175, 0.0]}}, {"type": "Feature", "properties": {"name": "Moorgate", "lines": "Metropolitan, Northern, Circle, Hammersmith & City", "accessible": "Not Accessible"}, "geometry": {"type": "Point", "coordinates": [-0.089285420587671, 51.5183647341257, 0.0]}}, {"type": "Feature", "properties": {"name": "Barbican", "lines": "Metropolitan, Circle, Hammersmith & City", "accessible": "Not Accessible"}, "geometry": {"type": "Point", "coordinates": [-0.098773979194686, 51.5202103844398, 0.0]}}, {"type": "Feature", "properties": {"name": "Farringdon", "lines": "Metropolitan, Circle, Hammersmith & City", "accessible": "Fully Accessible"}, "geometry": {"type": "Point", "coordinates": [-0.105166098257485, 51.5204720783579, 0.0]}}, {"type": "Feature", "properties": {"name": "King's Cross St. Pancras", "lines": "Metropolitan, Northern, Piccadilly, Circle, Victoria, Hammersmith & City", "accessible": "Fully Accessible"}, "geometry": {"type": "Point", "coordinates": [-0.124750344185488, 51.529787127414, 0.0]}}, {"type": "Feature", "properties": {"name": "Euston Square", "lines": "Metropolitan, Circle, Hammersmith & City", "accessible": "Partially Accessible - Interchange Only"}, "geometry": {"type": "Point", "coordinates": [-0.135851312776002, 51.5256349922743, 0.0]}}, {"type": "Feature", "properties": {"name": "Baker Street", "lines": "Metropolitan, Bakerloo, Circle, Jubilee, Hammersmith & City", "accessible": "Partially Accessible - Interchange Only"}, "geometry": {"type": "Point", "coordinates": [-0.157032980300198, 51.523003746323, 0.0]}}, {"type": "Feature", "properties": {"name": "Edgware Road (Circle Line)", "lines": "Circle", "accessible": "Partially Accessible - Interchange Only"}, "geometry": {"type": "Point", "coordinates": [-0.167748227536376, 51.519874113216, 0.0]}}, {"type": "Feature", "properties": {"name": "Paddington", "lines": "Hammersmith & City, District, Circle, Bakerloo", "accessible": "Partially Accessible"}, "geometry": {"type": "Point", "coordinates": [-0.17536614215852, 51.5155051713438, 0.0]}}, {"type": "Feature", "properties": {"name": "Bayswater", "lines": "District, Circle", "accessible": "Not Accessible"}, "geometry": {"type": "Point", "coordinates": [-0.187898072385123, 51.5123254197534, 0.0]}}, {"type": "Feature", "properties": {"name": "High Street Kensington", "lines": "District, Circle", "accessible": "Partially Accessible - Interchange Only"}, "geometry": {"type": "Point", "coordinates": [-0.192181979243048, 51.5004463089042, 0.0]}}, {"type": "Feature", "properties": {"name": "Gloucester Road", "lines": "District, Piccadilly, Circle", "accessible": "Not Accessible"}, "geometry": {"type": "Point", "coordinates": [-0.18371055669604, 51.4944897326903, 0.0]}}, {"type": "Feature", "properties": {"name": "South Kensington", "lines": "District, Piccadilly, Circle", "accessible": "Partially Accessible - Interchange Only"}, "geometry": {"type": "Point", "coordinates": [-0.173140744694982, 51.4940896863845, 0.0]}}, {"type": "Feature", "properties": {"name": "Chiswick Park", "lines": "District", "accessible": "Not Accessible"}, "geometry": {"type": "Point", "coordinates": [-0.26854880833146, 51.4946682889916, 0.0]}}, {"type": "Feature", "properties": {"name": "Wimbledon Park", "lines": "District", "accessible": "Not Accessible"}, "geometry": {"type": "Point", "coordinates": [-0.199061896285376, 51.4340549280799, 0.0]}}, {"type": "Feature", "properties": {"name": "East Putney", "lines": "District", "accessible": "Not Accessible"}, "geometry": {"type": "Point", "coordinates": [-0.21103973778595, 51.4591498588384, 0.0]}}, {"type": "Feature", "properties": {"name": "West Kensington", "lines": "District", "accessible": "Not Accessible"}, "geometry": {"type": "Point", "coordinates": [-0.205433285639364, 51.4907915454301, 0.0]}}, {"type": "Feature", "properties": {"name": "Parsons Green", "lines": "District", "accessible": "Not Accessible"}, "geometry": {"type": "Point", "coordinates": [-0.20173953648515, 51.4749860987056, 0.0]}}, {"type": "Feature", "properties": {"name": "White City", "lines": "Central", "accessible": "Not Accessible"}, "geometry": {"type": "Point", "coordinates": [-0.224438284364719, 51.5122166736237, 0.0]}}, {"type": "Feature", "properties": {"name": "Shepherd's Bush", "lines": "Central", "accessible": "Not Accessible"}, "geometry": {"type": "Point", "coordinates": [-0.218811085425774, 51.5043540320894, 0.0]}}, {"type": "Feature", "properties": {"name": "Holland Park", "lines": "Central", "accessible": "Not Accessible"}, "geometry": {"type": "Point", "coordinates": [-0.205636397539602, 51.5071549123952, 0.0]}}, {"type": "Feature", "properties": {"name": "Becontree", "lines": "District", "accessible": "Not Accessible"}, "geometry": {"type": "Point", "coordinates": [0.127369132999237, 51.5403456308199, 0.0]}}, {"type": "Feature", "properties": {"name": "Victoria", "lines": "District, Circle, Victoria", "accessible": "Partially Accessible"}, "geometry": {"type": "Point", "coordinates": [-0.14306445018881, 51.4964021600764, 0.0]}}, {"type": "Feature", "properties": {"name": "Brixton", "lines": "Victoria", "accessible": "Fully Accessible"}, "geometry": {"type": "Point", "coordinates": [-0.114869173557957, 51.4626677839642, 0.0]}}, {"type": "Feature", "properties": {"name": "Pimlico", "lines": "Victoria", "accessible": "Not Accessible"}, "geometry": {"type": "Point", "coordinates": [-0.133683792044099, 51.489083026302, 0.0]}}, {"type": "Feature", "properties": {"name": "Vauxhall", "lines": "Victoria", "accessible": "Not Accessible"}, "geometry": {"type": "Point", "coordinates": [-0.124227036738512, 51.4856984493909, 0.0]}}, {"type": "Feature", "properties": {"name": "Warren Street", "lines": "Northern, Victoria", "accessible": "Not Accessible"}, "geometry": {"type": "Point", "coordinates": [-0.138316275529769, 51.5245289307367, 0.0]}}, {"type": "Feature", "properties": {"name": "Dagenham East", "lines": "District", "accessible": "Not Accessible"}, "geometry": {"type": "Point", "coordinates": [0.166003962649862, 51.5441617706067, 0.0]}}, {"type": "Feature", "properties": {"name": "Elm Park", "lines": "District", "accessible": "Fully Accessible"}, "geometry": {"type": "Point", "coordinates": [0.198693956591701, 51.5497214798208, 0.0]}}, {"type": "Feature", "properties": {"name": "Hornchurch", "lines": "District", "accessible": "Not Accessible"}, "geometry": {"type": "Point", "coordinates": [0.219134036058355, 51.5540505146079, 0.0]}}, {"type": "Feature", "properties": {"name": "Upminster Bridge", "lines": "District", "accessible": "Not Accessible"}, "geometry": {"type": "Point", "coordinates": [0.235853851010437, 51.5584976290184, 0.0]}}, {"type": "Feature", "properties": {"name": "Shepherd's Bush Market", "lines": "Hammersmith & City, Circle", "accessible": "Not Accessible"}, "geometry": {"type": "Point", "coordinates": [-0.226272239161867, 51.5060918115633, 0.0]}}, {"type": "Feature", "properties": {"name": "Goldhawk Road", "lines": "Hammersmith & City, Circle", "accessible": "Not Accessible"}, "geometry": {"type": "Point", "coordinates": [-0.226621276502508, 51.501992974751, 0.0]}}, {"type": "Feature", "properties": {"name": "Latimer Road", "lines": "Hammersmith & City, Circle", "accessible": "Not Accessible"}, "geometry": {"type": "Point", "coordinates": [-0.21782991407451, 51.5134601262303, 0.0]}}, {"type": "Feature", "properties": {"name": "Ladbroke Grove", "lines": "Hammersmith & City, Circle", "accessible": "Not Accessible"}, "geometry": {"type": "Point", "coordinates": [-0.210877644206675, 51.517322093498, 0.0]}}, {"type": "Feature", "properties": {"name": "Royal Oak", "lines": "Hammersmith & City, Circle", "accessible": "Not Accessible"}, "geometry": {"type": "Point", "coordinates": [-0.187761671856866, 51.5190497492588, 0.0]}}, {"type": "Feature", "properties": {"name": "Earl's Court", "lines": "District, Piccadilly", "accessible": "Fully Accessible"}, "geometry": {"type": "Point", "coordinates": [-0.193151477589029, 51.4919855768237, 0.0]}}, {"type": "Feature", "properties": {"name": "Queen's Park", "lines": "Bakerloo", "accessible": "Partially Accessible - Interchange Only"}, "geometry": {"type": "Point", "coordinates": [-0.205716929565442, 51.5339801351448, 0.0]}}, {"type": "Feature", "properties": {"name": "Notting Hill Gate", "lines": "District, Central, Circle", "accessible": "Not Accessible"}, "geometry": {"type": "Point", "coordinates": [-0.196065723250765, 51.5091574066812, 0.0]}}, {"type": "Feature", "properties": {"name": "Lancaster Gate", "lines": "Central", "accessible": "Not Accessible"}, "geometry": {"type": "Point", "coordinates": [-0.175420466686948, 51.5116886706852, 0.0]}}, {"type": "Feature", "properties": {"name": "Marble Arch", "lines": "Central", "accessible": "Not Accessible"}, "geometry": {"type": "Point", "coordinates": [-0.157334022942238, 51.5136012982456, 0.0]}}, {"type": "Feature", "properties": {"name": "Bond Street", "lines": "Central, Jubilee", "accessible": "Fully Accessible"}, "geometry": {"type": "Point", "coordinates": [-0.149656033847428, 51.514381142575, 0.0]}}, {"type": "Feature", "properties": {"name": "Perivale", "lines": "Central", "accessible": "Not Accessible"}, "geometry": {"type": "Point", "coordinates": [-0.323402230736006, 51.5367520396955, 0.0]}}, {"type": "Feature", "properties": {"name": "Greenford", "lines": "Central", "accessible": "Partially Accessible - Interchange Only"}, "geometry": {"type": "Point", "coordinates": [-0.346481627280673, 51.5425923680157, 0.0]}}, {"type": "Feature", "properties": {"name": "North Acton", "lines": "Central", "accessible": "Not Accessible"}, "geometry": {"type": "Point", "coordinates": [-0.259736737285887, 51.5236132092944, 0.0]}}, {"type": "Feature", "properties": {"name": "Putney Bridge", "lines": "District", "accessible": "Not Accessible"}, "geometry": {"type": "Point", "coordinates": [-0.208703119435311, 51.4682560043575, 0.0]}}, {"type": "Feature", "properties": {"name": "Bank", "lines": "Waterloo & City, Northern, Central", "accessible": "Not Accessible"}, "geometry": {"type": "Point", "coordinates": [-0.088882065096841, 51.5134270269479, 0.0]}}, {"type": "Feature", "properties": {"name": "Oxford Circus", "lines": "Central, Bakerloo, Victoria", "accessible": "Partially Accessible - Interchange Only"}, "geometry": {"type": "Point", "coordinates": [-0.141605199843146, 51.5153213176106, 0.0]}}, {"type": "Feature", "properties": {"name": "Holborn", "lines": "Central, Piccadilly", "accessible": "Not Accessible"}, "geometry": {"type": "Point", "coordinates": [-0.120390788915067, 51.5175798200696, 0.0]}}, {"type": "Feature", "properties": {"name": "Chancery Lane", "lines": "Central", "accessible": "Not Accessible"}, "geometry": {"type": "Point", "coordinates": [-0.111543537681388, 51.5182506335764, 0.0]}}, {"type": "Feature", "properties": {"name": "Canada Water", "lines": "Jubilee", "accessible": "Fully Accessible"}, "geometry": {"type": "Point", "coordinates": [-0.04996079141194, 51.4979220145116, 0.0]}}, {"type": "Feature", "properties": {"name": "Bermondsey", "lines": "Jubilee", "accessible": "Fully Accessible"}, "geometry": {"type": "Point", "coordinates": [-0.064333036476377, 51.4977035120635, 0.0]}}, {"type": "Feature", "properties": {"name": "Canary Wharf", "lines": "Jubilee", "accessible": "Fully Accessible"}, "geometry": {"type": "Point", "coordinates": [-0.017726664743273, 51.5034310127041, 0.0]}}, {"type": "Feature", "properties": {"name": "North Greenwich", "lines": "Jubilee", "accessible": "Fully Accessible"}, "geometry": {"type": "Point", "coordinates": [0.004314429744857, 51.5005349611346, 0.0]}}, {"type": "Feature", "properties": {"name": "Canning Town", "lines": "Jubilee", "accessible": "Fully Accessible"}, "geometry": {"type": "Point", "coordinates": [0.007974158419873, 51.5141228765766, 0.0]}}, {"type": "Feature", "properties": {"name": "Kilburn", "lines": "Jubilee", "accessible": "Fully Accessible"}, "geometry": {"type": "Point", "coordinates": [-0.204689921720116, 51.5469552390018, 0.0]}}, {"type": "Feature", "properties": {"name": "West Hampstead", "lines": "Jubilee", "accessible": "Not Accessible"}, "geometry": {"type": "Point", "coordinates": [-0.190144437494366, 51.5468041342918, 0.0]}}, {"type": "Feature", "properties": {"name": "Swiss Cottage", "lines": "Jubilee", "accessible": "Not Accessible"}, "geometry": {"type": "Point", "coordinates": [-0.174814497247458, 51.5437076008137, 0.0]}}, {"type": "Feature", "properties": {"name": "Finchley Road", "lines": "Metropolitan, Jubilee", "accessible": "Partially Accessible - Interchange Only"}, "geometry": {"type": "Point", "coordinates": [-0.181066237852478, 51.5472330755733, 0.0]}}, {"type": "Feature", "properties": {"name": "Colliers Wood", "lines": "Northern", "accessible": "Not Accessible"}, "geometry": {"type": "Point", "coordinates": [-0.178032911097111, 51.4181591066557, 0.0]}}, {"type": "Feature", "properties": {"name": "Archway", "lines": "Northern", "accessible": "Not Accessible"}, "geometry": {"type": "Point", "coordinates": [-0.135025978070087, 51.5645408826234, 0.0]}}, {"type": "Feature", "properties": {"name": "Tooting Broadway", "lines": "Northern", "accessible": "Not Accessible"}, "geometry": {"type": "Point", "coordinates": [-0.16836453629052, 51.4276757551805, 0.0]}}, {"type": "Feature", "properties": {"name": "Tooting Bec", "lines": "Northern", "accessible": "Not Accessible"}, "geometry": {"type": "Point", "coordinates": [-0.15920812954631, 51.4358993700234, 0.0]}}, {"type": "Feature", "properties": {"name": "Clapham South", "lines": "Northern", "accessible": "Not Accessible"}, "geometry": {"type": "Point", "coordinates": [-0.147186832640558, 51.4532375285868, 0.0]}}, {"type": "Feature", "properties": {"name": "Clapham Common", "lines": "Northern", "accessible": "Not Accessible"}, "geometry": {"type": "Point", "coordinates": [-0.137167009784716, 51.4622112335521, 0.0]}}, {"type": "Feature", "properties": {"name": "Clapham North", "lines": "Northern", "accessible": "Partially Accessible - Interchange Only"}, "geometry": {"type": "Point", "coordinates": [-0.129333403541793, 51.4657303680798, 0.0]}}, {"type": "Feature", "properties": {"name": "Goodge Street", "lines": "Northern", "accessible": "Not Accessible"}, "geometry": {"type": "Point", "coordinates": [-0.134317418003295, 51.5206035646107, 0.0]}}, {"type": "Feature", "properties": {"name": "Tottenham Court Road", "lines": "Central, Northern", "accessible": "Fully Accessible"}, "geometry": {"type": "Point", "coordinates": [-0.130478416245152, 51.5164588799847, 0.0]}}, {"type": "Feature", "properties": {"name": "Hampstead", "lines": "Northern", "accessible": "Not Accessible"}, "geometry": {"type": "Point", "coordinates": [-0.178497747443859, 51.5565922765381, 0.0]}}, {"type": "Feature", "properties": {"name": "Mornington Crescent", "lines": "Northern", "accessible": "Not Accessible"}, "geometry": {"type": "Point", "coordinates": [-0.1387241182319, 51.5347070026989, 0.0]}}, {"type": "Feature", "properties": {"name": "Chalk Farm", "lines": "Northern", "accessible": "Not Accessible"}, "geometry": {"type": "Point", "coordinates": [-0.152616492596534, 51.5438606020943, 0.0]}}, {"type": "Feature", "properties": {"name": "Kentish Town", "lines": "Northern", "accessible": "Not Accessible"}, "geometry": {"type": "Point", "coordinates": [-0.14072202813761, 51.5502963315101, 0.0]}}, {"type": "Feature", "properties": {"name": "Tufnell Park", "lines": "Northern", "accessible": "Not Accessible"}, "geometry": {"type": "Point", "coordinates": [-0.13843964784622, 51.5568469062101, 0.0]}}, {"type": "Feature", "properties": {"name": "Oval", "lines": "Northern", "accessible": "Not Accessible"}, "geometry": {"type": "Point", "coordinates": [-0.112380891880082, 51.4818384288355, 0.0]}}, {"type": "Feature", "properties": {"name": "Kennington", "lines": "Northern", "accessible": "Partially Accessible - Interchange Only"}, "geometry": {"type": "Point", "coordinates": [-0.105940029542131, 51.488341112167, 0.0]}}, {"type": "Feature", "properties": {"name": "East Acton", "lines": "Central", "accessible": "Not Accessible"}, "geometry": {"type": "Point", "coordinates": [-0.247139059644396, 51.51659882902, 0.0]}}, {"type": "Feature", "properties": {"name": "Chalfont & Latimer", "lines": "Metropolitan", "accessible": "Fully Accessible"}, "geometry": {"type": "Point", "coordinates": [-0.560701231920061, 51.6680354766743, 0.0]}}, {"type": "Feature", "properties": {"name": "Chorleywood", "lines": "Metropolitan", "accessible": "Fully Accessible"}, "geometry": {"type": "Point", "coordinates": [-0.518531312608756, 51.6542976596829, 0.0]}}, {"type": "Feature", "properties": {"name": "Wood Lane", "lines": "Hammersmith & City, Circle", "accessible": "Fully Accessible"}, "geometry": {"type": "Point", "coordinates": [-0.223566003960841, 51.5101420095008, 0.0]}}, {"type": "Feature", "properties": {"name": "Highbury & Islington", "lines": "Victoria", "accessible": "Partially Accessible"}, "geometry": {"type": "Point", "coordinates": [-0.103710311810678, 51.547426643679, 0.0]}}, {"type": "Feature", "properties": {"name": "Blackhorse Road", "lines": "Victoria", "accessible": "Not Accessible"}, "geometry": {"type": "Point", "coordinates": [-0.041767975411359, 51.5868423163447, 0.0]}}, {"type": "Feature", "properties": {"name": "Tottenham Hale", "lines": "Victoria", "accessible": "Fully Accessible"}, "geometry": {"type": "Point", "coordinates": [-0.060139414171698, 51.5880504759689, 0.0]}}, {"type": "Feature", "properties": {"name": "Queensway", "lines": "Central", "accessible": "Not Accessible"}, "geometry": {"type": "Point", "coordinates": [-0.187113881705539, 51.5102536052379, 0.0]}}, {"type": "Feature", "properties": {"name": "Buckhurst Hill", "lines": "Central", "accessible": "Not Accessible"}, "geometry": {"type": "Point", "coordinates": [0.046850474676384, 51.6259845361285, 0.0]}}, {"type": "Feature", "properties": {"name": "Loughton", "lines": "Central", "accessible": "Not Accessible"}, "geometry": {"type": "Point", "coordinates": [0.055364592448419, 51.6413140398805, 0.0]}}, {"type": "Feature", "properties": {"name": "Hainault", "lines": "Central", "accessible": "Fully Accessible"}, "geometry": {"type": "Point", "coordinates": [0.093535046767054, 51.6036417409427, 0.0]}}, {"type": "Feature", "properties": {"name": "Grange Hill", "lines": "Central", "accessible": "Not Accessible"}, "geometry": {"type": "Point", "coordinates": [0.092348743953445, 51.6131998649931, 0.0]}}, {"type": "Feature", "properties": {"name": "Debden", "lines": "Central", "accessible": "Partially Accessible"}, "geometry": {"type": "Point", "coordinates": [0.083793529867595, 51.645394091677, 0.0]}}, {"type": "Feature", "properties": {"name": "Epping", "lines": "Central", "accessible": "Fully Accessible"}, "geometry": {"type": "Point", "coordinates": [0.114025844922751, 51.6935652064952, 0.0]}}, {"type": "Feature", "properties": {"name": "Redbridge", "lines": "Central", "accessible": "Not Accessible"}, "geometry": {"type": "Point", "coordinates": [0.045436837333952, 51.5762510367167, 0.0]}}, {"type": "Feature", "properties": {"name": "Dollis Hill", "lines": "Jubilee", "accessible": "Not Accessible"}, "geometry": {"type": "Point", "coordinates": [-0.239016205755934, 51.5519642178543, 0.0]}}, {"type": "Feature", "properties": {"name": "Kingsbury", "lines": "Jubilee", "accessible": "Fully Accessible"}, "geometry": {"type": "Point", "coordinates": [-0.278620804099266, 51.5846432762628, 0.0]}}, {"type": "Feature", "properties": {"name": "Queensbury", "lines": "Jubilee", "accessible": "Not Accessible"}, "geometry": {"type": "Point", "coordinates": [-0.286198003128832, 51.5941996009634, 0.0]}}, {"type": "Feature", "properties": {"name": "South Kenton", "lines": "Bakerloo", "accessible": "Not Accessible"}, "geometry": {"type": "Point", "coordinates": [-0.308350944844092, 51.5702149819473, 0.0]}}, {"type": "Feature", "properties": {"name": "Harrow & Wealdstone", "lines": "Bakerloo", "accessible": "Fully Accessible"}, "geometry": {"type": "Point", "coordinates": [-0.334863781389938, 51.5920459310483, 0.0]}}, {"type": "Feature", "properties": {"name": "Stonebridge Park", "lines": "Bakerloo", "accessible": "Not Accessible"}, "geometry": {"type": "Point", "coordinates": [-0.276443341234838, 51.5441943674558, 0.0]}}, {"type": "Feature", "properties": {"name": "Embankment", "lines": "District, Bakerloo, Northern, Circle", "accessible": "Not Accessible"}, "geometry": {"type": "Point", "coordinates": [-0.122144131709805, 51.5074532989423, 0.0]}}, {"type": "Feature", "properties": {"name": "South Harrow", "lines": "Piccadilly", "accessible": "Not Accessible"}, "geometry": {"type": "Point", "coordinates": [-0.352071047655855, 51.5645509413175, 0.0]}}, {"type": "Feature", "properties": {"name": "Kensal Green", "lines": "Bakerloo", "accessible": "Not Accessible"}, "geometry": {"type": "Point", "coordinates": [-0.224454457556846, 51.5305736054161, 0.0]}}, {"type": "Feature", "properties": {"name": "Harlesden", "lines": "Bakerloo", "accessible": "Not Accessible"}, "geometry": {"type": "Point", "coordinates": [-0.258566531371696, 51.5367002109285, 0.0]}}, {"type": "Feature", "properties": {"name": "Wembley Central", "lines": "Bakerloo", "accessible": "Fully Accessible"}, "geometry": {"type": "Point", "coordinates": [-0.29680323156636, 51.5522833291033, 0.0]}}, {"type": "Feature", "properties": {"name": "North Wembley", "lines": "Bakerloo", "accessible": "Not Accessible"}, "geometry": {"type": "Point", "coordinates": [-0.303859909432008, 51.5623957263737, 0.0]}}, {"type": "Feature", "properties": {"name": "Paddington (H&C Line)", "lines": "Hammersmith & City", "accessible": "Partially Accessible"}, "geometry": {"type": "Point", "coordinates": [-0.178772530509927, 51.5185148940872, 0.0]}}, {"type": "Feature", "properties": {"name": "Kew Gardens", "lines": "District", "accessible": "Fully Accessible"}, "geometry": {"type": "Point", "coordinates": [-0.285018368341176, 51.4769978542773, 0.0]}}, {"type": "Feature", "properties": {"name": "Gunnersbury", "lines": "District", "accessible": "Partially Accessible - Interchange Only"}, "geometry": {"type": "Point", "coordinates": [-0.275113608793886, 51.4917426132631, 0.0]}}, {"type": "Feature", "properties": {"name": "Piccadilly Circus", "lines": "Bakerloo, Piccadilly", "accessible": "Not Accessible"}, "geometry": {"type": "Point", "coordinates": [-0.133662111522037, 51.5100620986633, 0.0]}}, {"type": "Feature", "properties": {"name": "Charing Cross", "lines": "Bakerloo, Northern", "accessible": "Fully Accessible"}, "geometry": {"type": "Point", "coordinates": [-0.127358365578834, 51.5073793841553, 0.0]}}, {"type": "Feature", "properties": {"name": "Elephant & Castle", "lines": "Northern, Bakerloo", "accessible": "Partially Accessible"}, "geometry": {"type": "Point", "coordinates": [-0.101160770427679, 51.4958386917426, 0.0]}}, {"type": "Feature", "properties": {"name": "Lambeth North", "lines": "Bakerloo", "accessible": "Not Accessible"}, "geometry": {"type": "Point", "coordinates": [-0.112207385371564, 51.4988434974009, 0.0]}}, {"type": "Feature", "properties": {"name": "Edgware Road (Bakerloo)", "lines": "Bakerloo", "accessible": "Not Accessible"}, "geometry": {"type": "Point", "coordinates": [-0.170223205438699, 51.5204708733028, 0.0]}}, {"type": "Feature", "properties": {"name": "Maida Vale", "lines": "Bakerloo", "accessible": "Not Accessible"}, "geometry": {"type": "Point", "coordinates": [-0.185804459598915, 51.5297309387148, 0.0]}}, {"type": "Feature", "properties": {"name": "Kilburn Park", "lines": "Bakerloo", "accessible": "Not Accessible"}, "geometry": {"type": "Point", "coordinates": [-0.193995458251398, 51.5349495027193, 0.0]}}, {"type": "Feature", "properties": {"name": "Marylebone", "lines": "Bakerloo", "accessible": "Not Accessible"}, "geometry": {"type": "Point", "coordinates": [-0.164215220446776, 51.5221606227201, 0.0]}}, {"type": "Feature", "properties": {"name": "Regent's Park", "lines": "Bakerloo", "accessible": "Not Accessible"}, "geometry": {"type": "Point", "coordinates": [-0.146287770475268, 51.5232801488787, 0.0]}}, {"type": "Feature", "properties": {"name": "Sloane Square", "lines": "District, Circle", "accessible": "Not Accessible"}, "geometry": {"type": "Point", "coordinates": [-0.156310789558297, 51.4923380170884, 0.0]}}, {"type": "Feature", "properties": {"name": "Ravenscourt Park", "lines": "District", "accessible": "Not Accessible"}, "geometry": {"type": "Point", "coordinates": [-0.235752094598315, 51.4941687153592, 0.0]}}, {"type": "Feature", "properties": {"name": "Hammersmith (Dist&Picc Line)", "lines": "District, Piccadilly", "accessible": "Fully Accessible"}, "geometry": {"type": "Point", "coordinates": [-0.223018446935571, 51.4920004980521, 0.0]}}, {"type": "Feature", "properties": {"name": "Belsize Park", "lines": "Northern", "accessible": "Not Accessible"}, "geometry": {"type": "Point", "coordinates": [-0.164595401481609, 51.5503280491108, 0.0]}}, {"type": "Feature", "properties": {"name": "Wood Green", "lines": "Piccadilly", "accessible": "Not Accessible"}, "geometry": {"type": "Point", "coordinates": [-0.109833682268479, 51.5974740526689, 0.0]}}, {"type": "Feature", "properties": {"name": "Bounds Green", "lines": "Piccadilly", "accessible": "Not Accessible"}, "geometry": {"type": "Point", "coordinates": [-0.124316721796801, 51.6070665091036, 0.0]}}, {"type": "Feature", "properties": {"name": "Westminster", "lines": "District, Circle, Jubilee", "accessible": "Fully Accessible"}, "geometry": {"type": "Point", "coordinates": [-0.125633447749655, 51.5009655911588, 0.0]}}, {"type": "Feature", "properties": {"name": "Kensington (Olympia)", "lines": "District", "accessible": "Fully Accessible"}, "geometry": {"type": "Point", "coordinates": [-0.210106190562842, 51.4977366172402, 0.0]}}, {"type": "Feature", "properties": {"name": "Euston", "lines": "Northern, Victoria", "accessible": "Partially Accessible"}, "geometry": {"type": "Point", "coordinates": [-0.134572986979356, 51.5280864880292, 0.0]}}, {"type": "Feature", "properties": {"name": "Waterloo", "lines": "Waterloo & City, Bakerloo, Northern, Jubilee", "accessible": "Partially Accessible"}, "geometry": {"type": "Point", "coordinates": [-0.114401197448965, 51.5034266227996, 0.0]}}, {"type": "Feature", "properties": {"name": "Upminster", "lines": "District", "accessible": "Fully Accessible"}, "geometry": {"type": "Point", "coordinates": [0.251143119887474, 51.5590893129807, 0.0]}}, {"type": "Feature", "properties": {"name": "West Ham", "lines": "District, Hammersmith & City, Jubilee", "accessible": "Fully Accessible"}, "geometry": {"type": "Point", "coordinates": [0.004310365571871, 51.5282808249125, 0.0]}}, {"type": "Feature", "properties": {"name": "Walthamstow Central", "lines": "Victoria", "accessible": "Not Accessible"}, "geometry": {"type": "Point", "coordinates": [-0.021489893196447, 51.5831214954807, 0.0]}}, {"type": "Feature", "properties": {"name": "Ealing Broadway", "lines": "District, Central", "accessible": "Partially Accessible - Interchange Only"}, "geometry": {"type": "Point", "coordinates": [-0.300982951016848, 51.5150055321924, 0.0]}}, {"type": "Feature", "properties": {"name": "Acton Town", "lines": "District, Piccadilly", "accessible": "Fully Accessible"}, "geometry": {"type": "Point", "coordinates": [-0.279999104605516, 51.5026464502868, 0.0]}}, {"type": "Feature", "properties": {"name": "Ealing Common", "lines": "District, Piccadilly", "accessible": "Partially Accessible - Interchange Only"}, "geometry": {"type": "Point", "coordinates": [-0.288121126759677, 51.5095442418354, 0.0]}}, {"type": "Feature", "properties": {"name": "Green Park", "lines": "Piccadilly, Victoria, Jubilee", "accessible": "Fully Accessible"}, "geometry": {"type": "Point", "coordinates": [-0.142516829185471, 51.5068691045559, 0.0]}}, {"type": "Feature", "properties": {"name": "Finsbury Park", "lines": "Piccadilly, Victoria", "accessible": "Partially Accessible - Interchange Only"}, "geometry": {"type": "Point", "coordinates": [-0.106653230276946, 51.5645726811384, 0.0]}}, {"type": "Feature", "properties": {"name": "Stockwell", "lines": "Northern, Victoria", "accessible": "Partially Accessible - Interchange Only"}, "geometry": {"type": "Point", "coordinates": [-0.12301670611174, 51.4718293063076, 0.0]}}, {"type": "Feature", "properties": {"name": "Morden", "lines": "Northern", "accessible": "Fully Accessible"}, "geometry": {"type": "Point", "coordinates": [-0.194730076004683, 51.4025372733651, 0.0]}}, {"type": "Feature", "properties": {"name": "Hammersmith (H&C Line)", "lines": "Hammersmith & City", "accessible": "Fully Accessible"}, "geometry": {"type": "Point", "coordinates": [-0.224905917275528, 51.4937850044917, 0.0]}}, {"type": "Feature", "properties": {"name": "Hatton Cross", "lines": "Piccadilly", "accessible": "Not Accessible"}, "geometry": {"type": "Point", "coordinates": [-0.423443496172184, 51.466627826375, 0.0]}}, {"type": "Feature", "properties": {"name": "Hounslow West", "lines": "Piccadilly", "accessible": "Fully Accessible"}, "geometry": {"type": "Point", "coordinates": [-0.385772788856648, 51.4736187452599, 0.0]}}, {"type": "Feature", "properties": {"name": "Hounslow Central", "lines": "Piccadilly", "accessible": "Not Accessible"}, "geometry": {"type": "Point", "coordinates": [-0.366272590499386, 51.4713196785983, 0.0]}}, {"type": "Feature", "properties": {"name": "Hounslow East", "lines": "Piccadilly", "accessible": "Fully Accessible"}, "geometry": {"type": "Point", "coordinates": [-0.356313033726448, 51.4732627979418, 0.0]}}, {"type": "Feature", "properties": {"name": "Osterley", "lines": "Piccadilly", "accessible": "Not Accessible"}, "geometry": {"type": "Point", "coordinates": [-0.352199309980199, 51.4812435134735, 0.0]}}, {"type": "Feature", "properties": {"name": "Northfields", "lines": "Piccadilly", "accessible": "Not Accessible"}, "geometry": {"type": "Point", "coordinates": [-0.312972772078149, 51.4996553291648, 0.0]}}, {"type": "Feature", "properties": {"name": "Barons Court", "lines": "District, Piccadilly", "accessible": "Partially Accessible - Interchange Only"}, "geometry": {"type": "Point", "coordinates": [-0.214660488067239, 51.4902993374424, 0.0]}}, {"type": "Feature", "properties": {"name": "Fulham Broadway", "lines": "District", "accessible": "Fully Accessible"}, "geometry": {"type": "Point", "coordinates": [-0.194742482172033, 51.4807686154393, 0.0]}}, {"type": "Feature", "properties": {"name": "West Brompton", "lines": "District", "accessible": "Partially Accessible"}, "geometry": {"type": "Point", "coordinates": [-0.195547893072088, 51.4872805047592, 0.0]}}, {"type": "Feature", "properties": {"name": "Stamford Brook", "lines": "District", "accessible": "Not Accessible"}, "geometry": {"type": "Point", "coordinates": [-0.245978135514486, 51.4949190385423, 0.0]}}, {"type": "Feature", "properties": {"name": "Turnham Green", "lines": "District, Piccadilly", "accessible": "Partially Accessible - Interchange Only"}, "geometry": {"type": "Point", "coordinates": [-0.254527388575046, 51.4949587165302, 0.0]}}, {"type": "Feature", "properties": {"name": "Aldgate East", "lines": "Hammersmith & City, District", "accessible": "Not Accessible"}, "geometry": {"type": "Point", "coordinates": [-0.071127223916364, 51.5154283167147, 0.0]}}, {"type": "Feature", "properties": {"name": "Whitechapel", "lines": "District, Hammersmith & City", "accessible": "Not Accessible"}, "geometry": {"type": "Point", "coordinates": [-0.060741995760638, 51.5195334172938, 0.0]}}, {"type": "Feature", "properties": {"name": "Bow Road", "lines": "District, Hammersmith & City", "accessible": "Not Accessible"}, "geometry": {"type": "Point", "coordinates": [-0.025175687286684, 51.5269041227919, 0.0]}}, {"type": "Feature", "properties": {"name": "Wembley Park", "lines": "Metropolitan, Jubilee", "accessible": "Fully Accessible"}, "geometry": {"type": "Point", "coordinates": [-0.280026668594193, 51.5637628889937, 0.0]}}, {"type": "Feature", "properties": {"name": "Neasden", "lines": "Jubilee", "accessible": "Not Accessible"}, "geometry": {"type": "Point", "coordinates": [-0.251146617248987, 51.5544285977155, 0.0]}}, {"type": "Feature", "properties": {"name": "Totteridge & Whetstone", "lines": "Northern", "accessible": "Not Accessible"}, "geometry": {"type": "Point", "coordinates": [-0.179179947727096, 51.6305906764516, 0.0]}}, {"type": "Feature", "properties": {"name": "Heathrow Terminal 4", "lines": "Piccadilly", "accessible": "Fully Accessible"}, "geometry": {"type": "Point", "coordinates": [-0.445693269874028, 51.4585405410818, 0.0]}}, {"type": "Feature", "properties": {"name": "West Acton", "lines": "Central", "accessible": "Not Accessible"}, "geometry": {"type": "Point", "coordinates": [-0.280930981543848, 51.5179813957527, 0.0]}}, {"type": "Feature", "properties": {"name": "Stratford", "lines": "Central, Jubilee", "accessible": "Fully Accessible"}, "geometry": {"type": "Point", "coordinates": [-0.003776772458058, 51.5414582459241, 0.0]}}, {"type": "Feature", "properties": {"name": "Uxbridge", "lines": "Metropolitan, Piccadilly", "accessible": "Fully Accessible"}, "geometry": {"type": "Point", "coordinates": [-0.47761385063621, 51.546464016624, 0.0]}}, {"type": "Feature", "properties": {"name": "Hillingdon", "lines": "Metropolitan, Piccadilly", "accessible": "Fully Accessible"}, "geometry": {"type": "Point", "coordinates": [-0.449363066188412, 51.5539509504471, 0.0]}}, {"type": "Feature", "properties": {"name": "Ickenham", "lines": "Metropolitan, Piccadilly", "accessible": "Not Accessible"}, "geometry": {"type": "Point", "coordinates": [-0.442019216932921, 51.5619706644323, 0.0]}}, {"type": "Feature", "properties": {"name": "Ruislip", "lines": "Metropolitan, Piccadilly", "accessible": "Partially Accessible"}, "geometry": {"type": "Point", "coordinates": [-0.421769765301183, 51.5712934498542, 0.0]}}, {"type": "Feature", "properties": {"name": "Ruislip Manor", "lines": "Metropolitan, Piccadilly", "accessible": "Not Accessible"}, "geometry": {"type": "Point", "coordinates": [-0.411791491503135, 51.5734778825197, 0.0]}}, {"type": "Feature", "properties": {"name": "Northwood Hills", "lines": "Metropolitan", "accessible": "Not Accessible"}, "geometry": {"type": "Point", "coordinates": [-0.408724956208854, 51.6001951578344, 0.0]}}, {"type": "Feature", "properties": {"name": "West Harrow", "lines": "Metropolitan", "accessible": "Not Accessible"}, "geometry": {"type": "Point", "coordinates": [-0.353268235642068, 51.5795683742179, 0.0]}}, {"type": "Feature", "properties": {"name": "Rayners Lane", "lines": "Metropolitan, Piccadilly", "accessible": "Partially Accessible - Interchange Only"}, "geometry": {"type": "Point", "coordinates": [-0.371424615779741, 51.5751970766605, 0.0]}}, {"type": "Feature", "properties": {"name": "North Harrow", "lines": "Metropolitan", "accessible": "Not Accessible"}, "geometry": {"type": "Point", "coordinates": [-0.362582721579554, 51.5849491481384, 0.0]}}, {"type": "Feature", "properties": {"name": "Pinner", "lines": "Metropolitan", "accessible": "Fully Accessible"}, "geometry": {"type": "Point", "coordinates": [-0.381140145085807, 51.5928280888514, 0.0]}}, {"type": "Feature", "properties": {"name": "Harrow-on-the-Hill", "lines": "Metropolitan", "accessible": "Partially Accessible - Interchange Only"}, "geometry": {"type": "Point", "coordinates": [-0.336729895702129, 51.5794163171942, 0.0]}}, {"type": "Feature", "properties": {"name": "Northwick Park", "lines": "Metropolitan", "accessible": "Partially Accessible - Interchange Only"}, "geometry": {"type": "Point", "coordinates": [-0.318043772012892, 51.5784768993842, 0.0]}}, {"type": "Feature", "properties": {"name": "Stanmore", "lines": "Jubilee", "accessible": "Fully Accessible"}, "geometry": {"type": "Point", "coordinates": [-0.303238655645259, 51.6197138463166, 0.0]}}, {"type": "Feature", "properties": {"name": "Canons Park", "lines": "Jubilee", "accessible": "Not Accessible"}, "geometry": {"type": "Point", "coordinates": [-0.294670499457552, 51.6077114607851, 0.0]}}, {"type": "Feature", "properties": {"name": "St. John's Wood", "lines": "Jubilee", "accessible": "Not Accessible"}, "geometry": {"type": "Point", "coordinates": [-0.174122398684123, 51.5352069573221, 0.0]}}, {"type": "Feature", "properties": {"name": "Southwark", "lines": "Jubilee", "accessible": "Fully Accessible"}, "geometry": {"type": "Point", "coordinates": [-0.10537174281666, 51.5042889814589, 0.0]}}, {"type": "Feature", "properties": {"name": "London Bridge", "lines": "Northern, Jubilee", "accessible": "Fully Accessible"}, "geometry": {"type": "Point", "coordinates": [-0.089622674026004, 51.5050664437801, 0.0]}}, {"type": "Feature", "properties": {"name": "Wimbledon", "lines": "District", "accessible": "Fully Accessible"}, "geometry": {"type": "Point", "coordinates": [-0.206490546635829, 51.4214342815961, 0.0]}}, {"type": "Feature", "properties": {"name": "West Finchley", "lines": "Northern", "accessible": "Fully Accessible"}, "geometry": {"type": "Point", "coordinates": [-0.188317206667133, 51.6094899674085, 0.0]}}, {"type": "Feature", "properties": {"name": "Battersea Power Station", "lines": "Northern", "accessible": null}, "geometry": {"type": "Point", "coordinates": [-0.14337592387698, 51.479476844446, 0.0]}}, {"type": "Feature", "properties": {"name": "Nine Elms", "lines": "Northern", "accessible": null}, "geometry": {"type": "Point", "coordinates": [-0.129460177384867, 51.4801402495606, 0.0]}}, {"type": "Feature", "properties": {"name": "Edgware", "lines": "Northern", "accessible": "Fully Accessible"}, "geometry": {"type": "Point", "coordinates": [-0.274754442836556, 51.613610747663, 0.0]}}, {"type": "Feature", "properties": {"name": "North Ealing", "lines": "Piccadilly", "accessible": "Not Accessible"}, "geometry": {"type": "Point", "coordinates": [-0.288802338201631, 51.5174834180896, 0.0]}}, {"type": "Feature", "properties": {"name": "Caledonian Road", "lines": "Piccadilly", "accessible": "Fully Accessible"}, "geometry": {"type": "Point", "coordinates": [-0.118447284607226, 51.5485259828216, 0.0]}}, {"type": "Feature", "properties": {"name": "Monument", "lines": "District, Circle", "accessible": "Partially Accessible - Interchange Only"}, "geometry": {"type": "Point", "coordinates": [-0.086087622090599, 51.5107212088704, 0.0]}}, {"type": "Feature", "properties": {"name": "Great Portland Street", "lines": "Metropolitan, Circle, Hammersmith & City", "accessible": "Not Accessible"}, "geometry": {"type": "Point", "coordinates": [-0.144265574194803, 51.5238482366569, 0.0]}}, {"type": "Feature", "properties": {"name": "Southfields", "lines": "District", "accessible": "Fully Accessible"}, "geometry": {"type": "Point", "coordinates": [-0.206629303693064, 51.4450797805852, 0.0]}}, {"type": "Feature", "properties": {"name": "Dagenham Heathway", "lines": "District", "accessible": "Fully Accessible"}, "geometry": {"type": "Point", "coordinates": [0.147546820248486, 51.5416184804187, 0.0]}}, {"type": "Feature", "properties": {"name": "Heathrow Terminals 1-2-3", "lines": "Piccadilly", "accessible": "Fully Accessible"}, "geometry": {"type": "Point", "coordinates": [-0.452405626454076, 51.4713042858625, 0.0]}}, {"type": "Feature", "properties": {"name": "Westbourne Park", "lines": "Hammersmith & City, Circle", "accessible": "Not Accessible"}, "geometry": {"type": "Point", "coordinates": [-0.201128498562751, 51.5209217056555, 0.0]}}, {"type": "Feature", "properties": {"name": "Hanger Lane", "lines": "Central", "accessible": "Not Accessible"}, "geometry": {"type": "Point", "coordinates": [-0.292661519529402, 51.5301868520695, 0.0]}}, {"type": "Feature", "properties": {"name": "Gants Hill", "lines": "Central", "accessible": "Not Accessible"}, "geometry": {"type": "Point", "coordinates": [0.066220725307974, 51.576536215128, 0.0]}}, {"type": "Feature", "properties": {"name": "Bromley-by-Bow", "lines": "District, Hammersmith & City", "accessible": "Not Accessible"}, "geometry": {"type": "Point", "coordinates": [-0.011433820529312, 51.5247616983537, 0.0]}}, {"type": "Feature", "properties": {"name": "Richmond", "lines": "District", "accessible": "Fully Accessible"}, "geometry": {"type": "Point", "coordinates": [-0.301646518963653, 51.4631184318418, 0.0]}}, {"type": "Feature", "properties": {"name": "Warwick Avenue", "lines": "Bakerloo", "accessible": "Not Accessible"}, "geometry": {"type": "Point", "coordinates": [-0.183581995971193, 51.5232005763863, 0.0]}}, {"type": "Feature", "properties": {"name": "St. James's Park", "lines": "District, Circle", "accessible": "Not Accessible"}, "geometry": {"type": "Point", "coordinates": [-0.133601971319782, 51.4995625338571, 0.0]}}, {"type": "Feature", "properties": {"name": "Turnpike Lane", "lines": "Piccadilly", "accessible": "Not Accessible"}, "geometry": {"type": "Point", "coordinates": [-0.102946674314524, 51.5902548148168, 0.0]}}, {"type": "Feature", "properties": {"name": "Barking", "lines": "District, Hammersmith & City", "accessible": "Fully Accessible"}, "geometry": {"type": "Point", "coordinates": [0.080209129564163, 51.5398861475186, 0.0]}}, {"type": "Feature", "properties": {"name": "South Wimbledon", "lines": "Northern", "accessible": "Not Accessible"}, "geometry": {"type": "Point", "coordinates": [-0.193281732374388, 51.4149885265076, 0.0]}}, {"type": "Feature", "properties": {"name": "Boston Manor", "lines": "Piccadilly", "accessible": "Not Accessible"}, "geometry": {"type": "Point", "coordinates": [-0.325573315900841, 51.4952201373787, 0.0]}}, {"type": "Feature", "properties": {"name": "Stepney Green", "lines": "District, Hammersmith & City", "accessible": "Not Accessible"}, "geometry": {"type": "Point", "coordinates": [-0.046563851823429, 51.5218629258813, 0.0]}}, {"type": "Feature", "properties": {"name": "High Barnet", "lines": "Northern", "accessible": "Fully Accessible"}, "geometry": {"type": "Point", "coordinates": [-0.194140784281301, 51.650524935439, 0.0]}}, {"type": "Feature", "properties": {"name": "Eastcote", "lines": "Metropolitan, Piccadilly", "accessible": "Not Accessible"}, "geometry": {"type": "Point", "coordinates": [-0.397346888916094, 51.5765138944014, 0.0]}}, {"type": "Feature", "properties": {"name": "Amersham", "lines": "Metropolitan", "accessible": "Partially Accessible"}, "geometry": {"type": "Point", "coordinates": [-0.607682857863921, 51.6741494619535, 0.0]}}, {"type": "Feature", "properties": {"name": "Willesden Green", "lines": "Jubilee", "accessible": "Not Accessible"}, "geometry": {"type": "Point", "coordinates": [-0.222691934916957, 51.549374676036, 0.0]}}, {"type": "Feature", "properties": {"name": "Balham", "lines": "Northern", "accessible": "Not Accessible"}, "geometry": {"type": "Point", "coordinates": [-0.15266560362294, 51.4436277491606, 0.0]}}, {"type": "Feature", "properties": {"name": "Camden Town", "lines": "Northern", "accessible": "Partially Accessible - Interchange Only"}, "geometry": {"type": "Point", "coordinates": [-0.142597262583471, 51.5392327631812, 0.0]}}, {"type": "Feature", "properties": {"name": "Heathrow Terminal 5", "lines": "Piccadilly", "accessible": "Fully Accessible"}, "geometry": {"type": "Point", "coordinates": [-0.488020171532433, 51.472526161045, 0.0]}}, {"type": "Feature", "properties": {"name": "Willesden Junction", "lines": "Bakerloo", "accessible": "Fully Accessible"}, "geometry": {"type": "Point", "coordinates": [-0.244549258009932, 51.5324055111114, 0.0]}}, {"type": "Feature", "properties": {"name": "East Finchley", "lines": "Northern", "accessible": "Not Accessible"}, "geometry": {"type": "Point", "coordinates": [-0.165018716089878, 51.5871566525116, 0.0]}}, {"type": "Feature", "properties": {"name": "Highgate", "lines": "Northern", "accessible": "Not Accessible"}, "geometry": {"type": "Point", "coordinates": [-0.146442109971085, 51.5778466191736, 0.0]}}, {"type": "Feature", "properties": {"name": "Chesham", "lines": "Metropolitan", "accessible": "Fully Accessible"}, "geometry": {"type": "Point", "coordinates": [-0.610957106041938, 51.7052267134821, 0.0]}}, {"type": "Feature", "properties": {"name": "Rickmansworth", "lines": "Metropolitan", "accessible": "Partially Accessible"}, "geometry": {"type": "Point", "coordinates": [-0.47368448665146, 51.640291811549, 0.0]}}, {"type": "Feature", "properties": {"name": "Moor Park", "lines": "Metropolitan", "accessible": "Not Accessible"}, "geometry": {"type": "Point", "coordinates": [-0.43226536317211, 51.6298703587364, 0.0]}}, {"type": "Feature", "properties": {"name": "Northwood", "lines": "Metropolitan", "accessible": "Not Accessible"}, "geometry": {"type": "Point", "coordinates": [-0.423914085984195, 51.6110173420822, 0.0]}}, {"type": "Feature", "properties": {"name": "Croxley", "lines": "Metropolitan", "accessible": "Not Accessible"}, "geometry": {"type": "Point", "coordinates": [-0.441746350839895, 51.647081796, 0.0]}}, {"type": "Feature", "properties": {"name": "Watford", "lines": "Metropolitan", "accessible": "Not Accessible"}, "geometry": {"type": "Point", "coordinates": [-0.417389649821613, 51.6574853137725, 0.0]}}, {"type": "Feature", "properties": {"name": "Borough", "lines": "Northern", "accessible": "Partially Accessible"}, "geometry": {"type": "Point", "coordinates": [-0.093287238298321, 51.501192719769, 0.0]}}, {"type": "Feature", "properties": {"name": "Old Street", "lines": "Northern", "accessible": "Not Accessible"}, "geometry": {"type": "Point", "coordinates": [-0.087610917874237, 51.5250870447369, 0.0]}}, {"type": "Feature", "properties": {"name": "Angel", "lines": "Northern", "accessible": "Not Accessible"}, "geometry": {"type": "Point", "coordinates": [-0.104700331754964, 51.5314896253369, 0.0]}}, {"type": "Feature", "properties": {"name": "Hendon Central", "lines": "Northern", "accessible": "Fully Accessible"}, "geometry": {"type": "Point", "coordinates": [-0.22632104409561, 51.5831746651484, 0.0]}}, {"type": "Feature", "properties": {"name": "Seven Sisters", "lines": "Victoria", "accessible": "Not Accessible"}, "geometry": {"type": "Point", "coordinates": [-0.072484705227818, 51.5833999195093, 0.0]}}, {"type": "Feature", "properties": {"name": "Theydon Bois", "lines": "Central", "accessible": "Partially Accessible"}, "geometry": {"type": "Point", "coordinates": [0.103354074905424, 51.6718358056893, 0.0]}}, {"type": "Feature", "properties": {"name": "Kenton", "lines": "Bakerloo", "accessible": "Not Accessible"}, "geometry": {"type": "Point", "coordinates": [-0.316705448121499, 51.5816135016238, 0.0]}}, {"type": "Feature", "properties": {"name": "Woodside Park", "lines": "Northern", "accessible": "Fully Accessible"}, "geometry": {"type": "Point", "coordinates": [-0.185486090420871, 51.6180893540403, 0.0]}}, {"type": "Feature", "properties": {"name": "Preston Road", "lines": "Metropolitan", "accessible": "Not Accessible"}, "geometry": {"type": "Point", "coordinates": [-0.295106291500494, 51.5720161479392, 0.0]}}]}