{"type":"FeatureCollection","features":[{"type":"Feature","properties":{"LSOA21CD":"E01000001","LSOA21NM":"City of London 001A","MEAN_PTAL_":"6b","mean_AI":74.8180601783,"borough":"City of London"},"geometry":{"type":"Polygon","coordinates":[[[-0.096647,51.520276],[-0.096635,51.520249],[-0.09649,51.520276],[-0.096304,51.520311],[-0.096288,51.520314],[-0.09593,51.52038],[-0.095774,51.520408],[-0.095653,51.52043],[-0.095587,51.520442],[-0.095415,51.520473],[-0.09533,51.520488],[-0.095242,51.520504],[-0.095208,51.52051],[-0.095053,51.520538],[-0.094894,51.520568],[-0.094744,51.520596],[-0.094726,51.520599],[-0.094363,51.520665],[-0.09437,51.52064],[-0.094374,51.520628],[-0.094388,51.520579],[-0.094426,51.520447],[-0.09446,51.520332],[-0.09449,51.520241],[-0.094514,51.520166],[-0.094518,51.520152],[-0.094547,51.520062],[-0.09459,51.519923],[-0.094595,51.519905],[-0.094606,51.519884],[-0.094617,51.519865],[-0.094621,51.519857],[-0.094504,51.519831],[-0.094446,51.519812],[-0.094479,51.519761],[-0.09448,51.519758],[-0.094497,51.519728],[-0.094514,51.519699],[-0.094543,51.519649],[-0.094589,51.51966],[-0.094606,51.519633],[-0.094637,51.519582],[-0.09472,51.519444],[-0.094764,51.519367],[-0.094857,51.519388],[-0.094981,51.519417],[-0.095019,51.519355],[-0.095058,51.51929],[-0.095059,51.519288],[-0.09507,51.51927],[-0.095099,51.519221],[-0.095103,51.519215],[-0.095113,51.519196],[-0.095141,51.519146],[-0.095173,51.519088],[-0.095195,51.51905],[-0.095215,51.519016],[-0.095268,51.518928],[-0.095156,51.518901],[-0.095008,51.518866],[-0.09527,51.51843],[-0.095319,51.518349],[-0.095249,51.51832],[-0.095126,51.518267],[-0.095058,51.518239],[-0.094971,51.518203],[-0.094942,51.518183],[-0.094988,51.518174],[-0.095014,51.518151],[-0.095004,51.518121],[-0.094954,51.518071],[-0.094994,51.518019],[-0.09506,51.517939],[-0.09513,51.517856],[-0.095171,51.517808],[-0.095239,51.517803],[-0.095253,51.51779],[-0.095269,51.517776],[-0.095263,51.517748],[-0.095224,51.517721],[-0.095234,51.517684],[-0.095272,51.51763],[-0.095322,51.517564],[-0.09534,51.517542],[-0.09536,51.517517],[-0.095397,51.517461],[-0.095407,51.517446],[-0.095421,51.517426],[-0.095431,51.517412],[-0.095459,51.517371],[-0.095498,51.51732],[-0.095515,51.517297],[-0.095528,51.517279],[-0.095555,51.517242],[-0.095582,51.517206],[-0.095648,51.517115],[-0.095706,51.517038],[-0.095746,51.516983],[-0.095766,51.516957],[-0.095788,51.51693],[-0.095867,51.51681],[-0.095887,51.516783],[-0.095908,51.516754],[-0.095866,51.516741],[-0.095703,51.516715],[-0.095696,51.516714],[-0.095635,51.516705],[-0.095459,51.516678],[-0.095154,51.516631],[-0.095095,51.51662],[-0.094917,51.516588],[-0.094921,51.516581],[-0.094979,51.516461],[-0.094987,51.516442],[-0.095014,51.516378],[-0.095029,51.516351],[-0.095045,51.516321],[-0.095164,51.516335],[-0.095187,51.516294],[-0.095203,51.51626],[-0.095222,51.516221],[-0.095235,51.516191],[-0.095257,51.516131],[-0.095292,51.516022],[-0.09531,51.515965],[-0.095324,51.51593],[-0.095333,51.515906],[-0.095356,51.515905],[-0.095391,51.515904],[-0.095507,51.515911],[-0.095508,51.515901],[-0.095514,51.515856],[-0.095513,51.515835],[-0.095513,51.515824],[-0.095513,51.515818],[-0.095512,51.515792],[-0.095511,51.515786],[-0.095508,51.515764],[-0.095507,51.515735],[-0.095504,51.515707],[-0.095501,51.515679],[-0.095499,51.515666],[-0.095496,51.515645],[-0.09549,51.515612],[-0.095484,51.515584],[-0.09548,51.515557],[-0.095474,51.515527],[-0.09547,51.515508],[-0.095468,51.515499],[-0.095455,51.515442],[-0.095507,51.515442],[-0.095582,51.515443],[-0.095614,51.515393],[-0.095697,51.515389],[-0.095743,51.515388],[-0.095745,51.515346],[-0.095747,51.51532],[-0.095746,51.515304],[-0.095744,51.515274],[-0.095739,51.515243],[-0.095738,51.515194],[-0.095736,51.515154],[-0.095741,51.515102],[-0.09575,51.515054],[-0.095754,51.515026],[-0.095771,51.514969],[-0.095865,51.514968],[-0.095935,51.514972],[-0.096088,51.514978],[-0.096197,51.514982],[-0.096345,51.514986],[-0.096349,51.514942],[-0.096349,51.514932],[-0.096349,51.514868],[-0.096363,51.514832],[-0.096377,51.514832],[-0.096563,51.514843],[-0.096564,51.514888],[-0.096565,51.51493],[-0.096565,51.514956],[-0.096613,51.514965],[-0.096637,51.515],[-0.096653,51.515026],[-0.096728,51.515032],[-0.096943,51.515047],[-0.097048,51.515054],[-0.097099,51.515058],[-0.097198,51.515064],[-0.097218,51.515065],[-0.097227,51.515067],[-0.097241,51.51507],[-0.097291,51.515081],[-0.097274,51.515156],[-0.097269,51.515182],[-0.097258,51.515225],[-0.097254,51.515238],[-0.097279,51.51524],[-0.097299,51.515241],[-0.097306,51.515242],[-0.097319,51.515243],[-0.097467,51.515256],[-0.097666,51.515275],[-0.097719,51.515287],[-0.097688,51.51544],[-0.097688,51.515447],[-0.097684,51.515509],[-0.097867,51.515529],[-0.097957,51.515539],[-0.097943,51.515586],[-0.097924,51.515646],[-0.097917,51.515669],[-0.097912,51.515682],[-0.097872,51.515805],[-0.097826,51.515942],[-0.097793,51.516041],[-0.09778,51.516083],[-0.097771,51.516111],[-0.09777,51.516115],[-0.09776,51.516152],[-0.097759,51.516198],[-0.09776,51.516303],[-0.097759,51.516342],[-0.097757,51.516381],[-0.097759,51.516408],[-0.097758,51.516439],[-0.097759,51.516496],[-0.097825,51.516509],[-0.097829,51.516571],[-0.097828,51.516602],[-0.097937,51.516602],[-0.098006,51.516599],[-0.098194,51.516591],[-0.098296,51.516586],[-0.098368,51.516582],[-0.098529,51.516575],[-0.098539,51.516575],[-0.098544,51.516575],[-0.098714,51.51657],[-0.09874,51.516658],[-0.098757,51.516727],[-0.098815,51.516732],[-0.098927,51.516729],[-0.09898,51.516726],[-0.099108,51.516722],[-0.09931,51.516721],[-0.099429,51.516719],[-0.099482,51.516724],[-0.099519,51.51674],[-0.099546,51.516766],[-0.099663,51.516769],[-0.099723,51.516769],[-0.099764,51.5168],[-0.099799,51.51683],[-0.099826,51.516859],[-0.099842,51.516884],[-0.099857,51.516911],[-0.099871,51.516939],[-0.099881,51.516972],[-0.099882,51.516974],[-0.099876,51.516977],[-0.099867,51.516983],[-0.099805,51.517023],[-0.099739,51.517062],[-0.09961,51.517134],[-0.099439,51.517231],[-0.099394,51.517257],[-0.099393,51.517258],[-0.099423,51.517289],[-0.09958,51.517405],[-0.099642,51.517451],[-0.099643,51.517452],[-0.099515,51.517535],[-0.099461,51.51757],[-0.099409,51.517603],[-0.099358,51.517635],[-0.099187,51.517739],[-0.099145,51.51776],[-0.099144,51.517761],[-0.09914,51.517763],[-0.0991,51.51773],[-0.099013,51.517658],[-0.098999,51.517658],[-0.098996,51.517658],[-0.09898,51.517657],[-0.098941,51.517655],[-0.098874,51.51765],[-0.098832,51.517669],[-0.098797,51.517687],[-0.098746,51.517712],[-0.098582,51.517763],[-0.098517,51.517788],[-0.098442,51.517816],[-0.098368,51.517841],[-0.098279,51.517869],[-0.098174,51.517899],[-0.098124,51.517784],[-0.098084,51.517694],[-0.098057,51.517633],[-0.098032,51.517578],[-0.098018,51.517548],[-0.097924,51.517562],[-0.09788,51.517569],[-0.097786,51.517582],[-0.097655,51.517599],[-0.097547,51.517614],[-0.097562,51.517682],[-0.097568,51.517706],[-0.097569,51.517712],[-0.097597,51.51785],[-0.097488,51.517865],[-0.097443,51.517871],[-0.097455,51.517931],[-0.097468,51.517995],[-0.09744,51.518017],[-0.097444,51.518051],[-0.097446,51.518072],[-0.097489,51.518185],[-0.097546,51.518325],[-0.097506,51.518329],[-0.097449,51.518335],[-0.09739,51.51834],[-0.097353,51.518344],[-0.097362,51.518372],[-0.097402,51.518367],[-0.097437,51.518363],[-0.0975,51.518383],[-0.097511,51.518455],[-0.097526,51.518548],[-0.097529,51.518569],[-0.097544,51.518655],[-0.097545,51.518662],[-0.097551,51.518703],[-0.09762,51.518691],[-0.09769,51.518803],[-0.097738,51.518903],[-0.097701,51.518916],[-0.097674,51.518923],[-0.097654,51.518928],[-0.097607,51.518936],[-0.0976,51.519019],[-0.097444,51.519043],[-0.097441,51.5191],[-0.097443,51.519112],[-0.097444,51.519119],[-0.097445,51.51913],[-0.097465,51.519171],[-0.09754,51.519169],[-0.09765,51.51916],[-0.097681,51.519305],[-0.097613,51.519311],[-0.097622,51.519338],[-0.097632,51.519365],[-0.097679,51.519413],[-0.097701,51.519455],[-0.097709,51.519504],[-0.097715,51.519537],[-0.097728,51.519612],[-0.097737,51.519667],[-0.097743,51.519699],[-0.097745,51.51971],[-0.097756,51.519741],[-0.097767,51.519767],[-0.09777,51.519773],[-0.097778,51.519793],[-0.097782,51.519804],[-0.097798,51.519845],[-0.097813,51.519877],[-0.09784,51.519922],[-0.09793,51.5199],[-0.098105,51.519855],[-0.098116,51.519852],[-0.098123,51.51985],[-0.098273,51.519809],[-0.098386,51.519779],[-0.098406,51.519773],[-0.098419,51.51977],[-0.098549,51.519735],[-0.098563,51.519751],[-0.098572,51.519761],[-0.098588,51.519781],[-0.098611,51.519809],[-0.098626,51.519829],[-0.098639,51.51985],[-0.098645,51.519861],[-0.098658,51.519883],[-0.098725,51.519994],[-0.098726,51.519997],[-0.098751,51.520035],[-0.098767,51.520061],[-0.098786,51.520091],[-0.098622,51.520129],[-0.098482,51.52016],[-0.098438,51.520169],[-0.098399,51.520177],[-0.09829,51.5202],[-0.09833,51.52025],[-0.098347,51.520273],[-0.098378,51.520325],[-0.098393,51.520358],[-0.0984,51.520372],[-0.098427,51.520432],[-0.098457,51.520495],[-0.098498,51.52054],[-0.098326,51.520569],[-0.098061,51.520615],[-0.098011,51.520623],[-0.097996,51.520626],[-0.09762,51.52069],[-0.097619,51.520694],[-0.097607,51.520763],[-0.0976,51.520801],[-0.0976,51.520805],[-0.097587,51.520874],[-0.097585,51.520889],[-0.097542,51.52113],[-0.097541,51.521134],[-0.097517,51.521269],[-0.097508,51.521323],[-0.097492,51.521382],[-0.097483,51.521414],[-0.097475,51.521444],[-0.097437,51.521588],[-0.097351,51.521586],[-0.097266,51.521585],[-0.09726,51.521573],[-0.096988,51.521022],[-0.096981,51.521006],[-0.09697,51.520964],[-0.096942,51.520903],[-0.096895,51.520808],[-0.09689,51.520797],[-0.096844,51.520698],[-0.096789,51.520589],[-0.096746,51.520487],[-0.096697,51.520379],[-0.09668,51.520344],[-0.096677,51.520337],[-0.096673,51.520329],[-0.096647,51.520276]]]}},{"type":"Feature","properties":{"LSOA21CD":"E01000917","LSOA21NM":"Camden 027C","MEAN_PTAL_":"6b","mean_AI":66.6299572763,"borough":"City of London"},"geometry":{"type":"Polygon","coordinates":[[[-0.112118,51.522168],[-0.112088,51.522157],[-0.112054,51.522195],[-0.11197,51.522289],[-0.11197,51.522301],[-0.11193,51.522336],[-0.111854,51.522404],[-0.111851,51.522406],[-0.111644,51.522325],[-0.111604,51.522309],[-0.111489,51.522264],[-0.111375,51.522219],[-0.111299,51.522189],[-0.111448,51.522071],[-0.111447,51.522068],[-0.111412,51.521949],[-0.111316,51.521939],[-0.111275,51.521935],[-0.111262,51.521934],[-0.11128,51.52193],[-0.111567,51.521874],[-0.111578,51.521871],[-0.111592,51.521869],[-0.111597,51.521868],[-0.111598,51.521871],[-0.1116,51.521877],[-0.111685,51.521857],[-0.1118,51.521828],[-0.111746,51.521717],[-0.111756,51.5217],[-0.111768,51.521694],[-0.111752,51.521632],[-0.11175,51.521624],[-0.111671,51.521566],[-0.111649,51.521551],[-0.111511,51.521451],[-0.111511,51.521442],[-0.111512,51.521356],[-0.111513,51.521334],[-0.111502,51.521326],[-0.11143,51.521274],[-0.111428,51.521271],[-0.111412,51.521225],[-0.111409,51.521219],[-0.111471,51.521158],[-0.111252,51.521196],[-0.111099,51.521224],[-0.11108,51.521247],[-0.111073,51.521254],[-0.111116,51.521371],[-0.111118,51.521376],[-0.111144,51.521388],[-0.111148,51.52139],[-0.111159,51.521405],[-0.111211,51.521477],[-0.111134,51.521631],[-0.111114,51.52167],[-0.1111,51.521676],[-0.110973,51.521631],[-0.110945,51.521621],[-0.110936,51.521612],[-0.11083,51.521508],[-0.110838,51.521426],[-0.110833,51.521421],[-0.11075,51.521352],[-0.110745,51.521348],[-0.110806,51.521281],[-0.11074,51.521293],[-0.110483,51.521342],[-0.110472,51.521344],[-0.110425,51.521353],[-0.11042,51.521354],[-0.110367,51.521364],[-0.110283,51.521358],[-0.110186,51.521263],[-0.11017,51.521211],[-0.110168,51.521206],[-0.109926,51.521247],[-0.109905,51.521251],[-0.109886,51.521211],[-0.109851,51.521138],[-0.109869,51.521125],[-0.109908,51.521096],[-0.109955,51.52106],[-0.109993,51.521032],[-0.109974,51.520955],[-0.10998,51.520949],[-0.110082,51.520841],[-0.110082,51.520839],[-0.110061,51.520743],[-0.110045,51.520676],[-0.109999,51.520477],[-0.110153,51.520482],[-0.110046,51.520159],[-0.110044,51.520154],[-0.109979,51.52017],[-0.109974,51.520171],[-0.109935,51.520181],[-0.109502,51.52026],[-0.109485,51.520264],[-0.109442,51.520156],[-0.109421,51.520103],[-0.109412,51.520078],[-0.109316,51.519835],[-0.109308,51.519813],[-0.109269,51.519714],[-0.109185,51.519502],[-0.109179,51.519486],[-0.109186,51.519478],[-0.109215,51.51945],[-0.109223,51.519443],[-0.109178,51.51931],[-0.109147,51.519217],[-0.10914,51.519197],[-0.109148,51.519196],[-0.109072,51.519036],[-0.108998,51.518881],[-0.108982,51.518847],[-0.108515,51.5189],[-0.108492,51.518774],[-0.108477,51.518693],[-0.108462,51.518612],[-0.108426,51.518419],[-0.10842,51.518385],[-0.108208,51.518363],[-0.107868,51.518397],[-0.107807,51.518401],[-0.107774,51.518309],[-0.107752,51.518248],[-0.107728,51.518164],[-0.107697,51.51805],[-0.107664,51.517932],[-0.107625,51.517842],[-0.107618,51.517842],[-0.107567,51.51785],[-0.107524,51.517849],[-0.107509,51.517849],[-0.107505,51.517848],[-0.107466,51.517839],[-0.107428,51.51783],[-0.107448,51.517804],[-0.107512,51.517788],[-0.107552,51.517778],[-0.107626,51.51776],[-0.107688,51.517745],[-0.107695,51.517744],[-0.107754,51.517729],[-0.107783,51.517722],[-0.107812,51.517715],[-0.107829,51.517711],[-0.108025,51.51773],[-0.108044,51.517732],[-0.108095,51.517737],[-0.108209,51.517747],[-0.108473,51.517776],[-0.108767,51.517807],[-0.108872,51.517818],[-0.108894,51.517822],[-0.108953,51.517833],[-0.108964,51.517834],[-0.109381,51.517907],[-0.109465,51.517921],[-0.109507,51.517928],[-0.110083,51.518019],[-0.110269,51.518049],[-0.110451,51.518077],[-0.110627,51.518094],[-0.110646,51.518097],[-0.11064,51.518133],[-0.110601,51.518357],[-0.110595,51.518517],[-0.110587,51.518717],[-0.110581,51.518854],[-0.110559,51.519377],[-0.110559,51.519382],[-0.110529,51.519384],[-0.110453,51.51939],[-0.11025,51.519411],[-0.110259,51.519431],[-0.110264,51.519448],[-0.110265,51.519456],[-0.110262,51.519465],[-0.110266,51.51948],[-0.110304,51.519605],[-0.110392,51.519595],[-0.110405,51.519592],[-0.110431,51.519586],[-0.110463,51.519628],[-0.11066,51.519594],[-0.110945,51.519545],[-0.111017,51.519533],[-0.111068,51.519524],[-0.111074,51.519534],[-0.111125,51.519622],[-0.11115,51.519665],[-0.111187,51.519728],[-0.111202,51.519754],[-0.111229,51.519799],[-0.111276,51.519881],[-0.111282,51.51989],[-0.111315,51.519882],[-0.111526,51.519835],[-0.111544,51.519831],[-0.111739,51.519787],[-0.111786,51.519776],[-0.111804,51.519773],[-0.111912,51.519747],[-0.111926,51.519743],[-0.112061,51.519711],[-0.112096,51.519703],[-0.112103,51.51971],[-0.112127,51.519704],[-0.112123,51.519697],[-0.112119,51.51969],[-0.112115,51.519684],[-0.112108,51.519674],[-0.112104,51.519667],[-0.112511,51.519584],[-0.112529,51.51962],[-0.112568,51.519697],[-0.11257,51.519702],[-0.112355,51.519756],[-0.112188,51.519793],[-0.11221,51.519831],[-0.112213,51.519835],[-0.112265,51.519925],[-0.112266,51.519928],[-0.112347,51.520067],[-0.112358,51.520082],[-0.112454,51.520217],[-0.112483,51.520258],[-0.112337,51.520287],[-0.112173,51.520385],[-0.112051,51.520344],[-0.112035,51.520338],[-0.11202,51.520338],[-0.11173,51.520319],[-0.111722,51.520319],[-0.111715,51.520319],[-0.111459,51.520459],[-0.111493,51.520454],[-0.111553,51.520577],[-0.111718,51.520915],[-0.111747,51.520933],[-0.111755,51.520935],[-0.111832,51.520954],[-0.111838,51.520956],[-0.111864,51.521033],[-0.111867,51.521041],[-0.111917,51.52106],[-0.112078,51.521119],[-0.112147,51.521228],[-0.112152,51.521236],[-0.112376,51.521342],[-0.112382,51.521345],[-0.112542,51.52138],[-0.112547,51.521384],[-0.112553,51.521388],[-0.112511,51.521679],[-0.112517,51.52169],[-0.112525,51.521688],[-0.112562,51.521682],[-0.112587,51.521678],[-0.112759,51.521649],[-0.112815,51.521639],[-0.112961,51.521606],[-0.113072,51.521577],[-0.113111,51.521567],[-0.113138,51.521561],[-0.113194,51.521546],[-0.113296,51.521521],[-0.113305,51.521518],[-0.113372,51.521627],[-0.113382,51.521642],[-0.113456,51.521744],[-0.113459,51.521748],[-0.113467,51.521758],[-0.113532,51.521845],[-0.113569,51.521894],[-0.113574,51.521902],[-0.113625,51.521969],[-0.113631,51.521977],[-0.113689,51.522054],[-0.113695,51.522063],[-0.113749,51.522134],[-0.11376,51.522139],[-0.113782,51.52217],[-0.113865,51.522279],[-0.113859,51.522281],[-0.11391,51.522349],[-0.113927,51.522368],[-0.113937,51.522379],[-0.113945,51.522388],[-0.114016,51.522469],[-0.114026,51.52248],[-0.114035,51.52249],[-0.114144,51.522612],[-0.114164,51.522636],[-0.114186,51.522659],[-0.114172,51.522663],[-0.114148,51.52267],[-0.113866,51.522751],[-0.113837,51.52276],[-0.113635,51.522818],[-0.11362,51.522822],[-0.113455,51.52287],[-0.113443,51.522873],[-0.113334,51.522904],[-0.113237,51.522932],[-0.113135,51.522957],[-0.113077,51.522983],[-0.113058,51.522962],[-0.112948,51.522841],[-0.112945,51.522838],[-0.112911,51.522801],[-0.1128,51.522695],[-0.11279,51.522685],[-0.112787,51.522681],[-0.112316,51.522548],[-0.11227,51.522535],[-0.112346,51.522481],[-0.112415,51.522431],[-0.112388,51.522285],[-0.112387,51.522281],[-0.112147,51.522181],[-0.112118,51.522168]]]}},{"type":"Feature","properties":{"LSOA21CD":"E01032740","LSOA21NM":"City of London 001G","MEAN_PTAL_":"6b","mean_AI":65.991818051,"borough":"City of London"},"geometry":{"type":"Polygon","coordinates":[[[-0.098563,51.519751],[-0.098549,51.519735],[-0.098419,51.51977],[-0.098406,51.519773],[-0.098386,51.519779],[-0.098273,51.519809],[-0.098123,51.51985],[-0.098116,51.519852],[-0.098105,51.519855],[-0.09793,51.5199],[-0.09784,51.519922],[-0.097813,51.519877],[-0.097798,51.519845],[-0.097782,51.519804],[-0.097778,51.519793],[-0.09777,51.519773],[-0.097767,51.519767],[-0.097756,51.519741],[-0.097745,51.51971],[-0.097743,51.519699],[-0.097737,51.519667],[-0.097728,51.519612],[-0.097715,51.519537],[-0.097709,51.519504],[-0.097701,51.519455],[-0.097679,51.519413],[-0.097632,51.519365],[-0.097622,51.519338],[-0.097613,51.519311],[-0.097681,51.519305],[-0.09765,51.51916],[-0.09754,51.519169],[-0.097465,51.519171],[-0.097445,51.51913],[-0.097444,51.519119],[-0.097443,51.519112],[-0.097441,51.5191],[-0.097444,51.519043],[-0.0976,51.519019],[-0.097607,51.518936],[-0.097654,51.518928],[-0.097674,51.518923],[-0.097701,51.518916],[-0.097738,51.518903],[-0.09769,51.518803],[-0.09762,51.518691],[-0.097551,51.518703],[-0.097545,51.518662],[-0.097544,51.518655],[-0.097529,51.518569],[-0.097526,51.518548],[-0.097511,51.518455],[-0.0975,51.518383],[-0.097437,51.518363],[-0.097402,51.518367],[-0.097362,51.518372],[-0.097353,51.518344],[-0.09739,51.51834],[-0.097449,51.518335],[-0.097506,51.518329],[-0.097546,51.518325],[-0.097489,51.518185],[-0.097446,51.518072],[-0.097444,51.518051],[-0.09744,51.518017],[-0.097468,51.517995],[-0.097455,51.517931],[-0.097443,51.517871],[-0.097488,51.517865],[-0.097597,51.51785],[-0.097569,51.517712],[-0.097568,51.517706],[-0.097562,51.517682],[-0.097547,51.517614],[-0.097655,51.517599],[-0.097786,51.517582],[-0.09788,51.517569],[-0.097924,51.517562],[-0.098018,51.517548],[-0.098032,51.517578],[-0.098057,51.517633],[-0.098084,51.517694],[-0.098124,51.517784],[-0.098174,51.517899],[-0.098279,51.517869],[-0.098368,51.517841],[-0.098442,51.517816],[-0.098517,51.517788],[-0.098582,51.517763],[-0.098746,51.517712],[-0.098797,51.517687],[-0.098832,51.517669],[-0.098874,51.51765],[-0.098941,51.517655],[-0.09898,51.517657],[-0.098996,51.517658],[-0.098999,51.517658],[-0.099013,51.517658],[-0.0991,51.51773],[-0.09914,51.517763],[-0.099144,51.517761],[-0.099145,51.51776],[-0.099187,51.517739],[-0.099358,51.517635],[-0.099409,51.517603],[-0.099461,51.51757],[-0.099515,51.517535],[-0.099643,51.517452],[-0.099642,51.517451],[-0.09958,51.517405],[-0.099423,51.517289],[-0.099393,51.517258],[-0.099394,51.517257],[-0.099439,51.517231],[-0.09961,51.517134],[-0.099739,51.517062],[-0.099805,51.517023],[-0.099867,51.516983],[-0.099876,51.516977],[-0.099882,51.516974],[-0.099881,51.516972],[-0.099871,51.516939],[-0.099857,51.516911],[-0.099842,51.516884],[-0.099826,51.516859],[-0.099799,51.51683],[-0.099764,51.5168],[-0.099723,51.516769],[-0.099725,51.516769],[-0.099786,51.516754],[-0.099863,51.516732],[-0.09993,51.516716],[-0.099947,51.516743],[-0.099996,51.51674],[-0.100096,51.516735],[-0.100337,51.516723],[-0.100398,51.516718],[-0.100448,51.516715],[-0.100498,51.516712],[-0.100506,51.516644],[-0.100512,51.516615],[-0.100532,51.516509],[-0.100556,51.516469],[-0.100646,51.51647],[-0.100749,51.516469],[-0.100804,51.516469],[-0.100948,51.516467],[-0.101006,51.516467],[-0.101185,51.516465],[-0.101238,51.516453],[-0.10129,51.51642],[-0.101314,51.516396],[-0.101343,51.51636],[-0.101365,51.516329],[-0.101392,51.516292],[-0.101411,51.516261],[-0.101416,51.516253],[-0.101455,51.5163],[-0.10152,51.516281],[-0.101559,51.516247],[-0.101583,51.516214],[-0.101602,51.516177],[-0.10162,51.516138],[-0.101624,51.516128],[-0.101628,51.51612],[-0.10163,51.516115],[-0.101647,51.516078],[-0.10169,51.515987],[-0.101689,51.515987],[-0.101534,51.515955],[-0.101535,51.515954],[-0.101557,51.515886],[-0.101562,51.51587],[-0.101565,51.515861],[-0.101596,51.515747],[-0.101616,51.515685],[-0.101621,51.515654],[-0.101654,51.51556],[-0.101666,51.515522],[-0.101674,51.515498],[-0.101679,51.515483],[-0.101713,51.515383],[-0.101731,51.51533],[-0.101766,51.515199],[-0.10177,51.515181],[-0.101819,51.515],[-0.101863,51.514853],[-0.101884,51.514775],[-0.101898,51.514723],[-0.101917,51.514659],[-0.101934,51.514603],[-0.101936,51.514598],[-0.101966,51.514508],[-0.10198,51.514468],[-0.10199,51.514428],[-0.101995,51.514409],[-0.102008,51.514359],[-0.102009,51.514354],[-0.102026,51.514289],[-0.102061,51.514158],[-0.102091,51.514048],[-0.102107,51.514001],[-0.102145,51.513936],[-0.102153,51.513923],[-0.102163,51.513905],[-0.102177,51.513881],[-0.102184,51.513869],[-0.102195,51.51382],[-0.102203,51.513789],[-0.102204,51.513773],[-0.102205,51.513756],[-0.102267,51.513755],[-0.102327,51.513754],[-0.102351,51.513753],[-0.102481,51.513754],[-0.102575,51.513756],[-0.102629,51.513755],[-0.102646,51.513755],[-0.102767,51.513755],[-0.102771,51.513755],[-0.102825,51.513755],[-0.102921,51.513754],[-0.102962,51.513754],[-0.102968,51.513754],[-0.10308,51.513753],[-0.103135,51.513753],[-0.103286,51.513751],[-0.10339,51.513749],[-0.103538,51.513744],[-0.103653,51.513741],[-0.103697,51.513739],[-0.103805,51.513737],[-0.103856,51.513736],[-0.103906,51.513735],[-0.103996,51.513731],[-0.104094,51.513726],[-0.104135,51.513725],[-0.104231,51.513722],[-0.104255,51.513721],[-0.104279,51.51372],[-0.104293,51.513719],[-0.104299,51.513719],[-0.104299,51.513717],[-0.104294,51.513686],[-0.104292,51.513677],[-0.104282,51.513589],[-0.104281,51.513585],[-0.104275,51.513536],[-0.104266,51.513474],[-0.104264,51.513456],[-0.104254,51.513386],[-0.10425,51.513363],[-0.104247,51.513342],[-0.104242,51.513298],[-0.10424,51.513285],[-0.104237,51.513246],[-0.104231,51.513196],[-0.10423,51.513174],[-0.104227,51.513137],[-0.104224,51.51307],[-0.104224,51.513065],[-0.104222,51.513008],[-0.104222,51.512977],[-0.10422,51.512944],[-0.104221,51.512913],[-0.10422,51.512898],[-0.10422,51.512884],[-0.10422,51.512878],[-0.10422,51.512846],[-0.10422,51.51281],[-0.104222,51.51278],[-0.104222,51.512765],[-0.104223,51.512743],[-0.104224,51.51272],[-0.104224,51.512674],[-0.104226,51.512621],[-0.104227,51.512598],[-0.10423,51.512504],[-0.104238,51.512326],[-0.104241,51.512252],[-0.104242,51.512139],[-0.104243,51.512108],[-0.104246,51.512032],[-0.104248,51.511917],[-0.104253,51.511809],[-0.104253,51.511799],[-0.104255,51.511761],[-0.104257,51.511698],[-0.104256,51.511664],[-0.104256,51.511632],[-0.104256,51.511623],[-0.104258,51.511574],[-0.104258,51.511569],[-0.104263,51.511468],[-0.104269,51.511304],[-0.104509,51.511306],[-0.104523,51.511306],[-0.104569,51.511307],[-0.10457,51.511287],[-0.104579,51.511131],[-0.10458,51.511117],[-0.10458,51.511112],[-0.104582,51.511076],[-0.104583,51.511072],[-0.104584,51.511053],[-0.104586,51.511021],[-0.104586,51.511014],[-0.104589,51.510998],[-0.104602,51.510917],[-0.104622,51.510788],[-0.104631,51.510756],[-0.104678,51.510738],[-0.104622,51.510707],[-0.104596,51.510657],[-0.104598,51.510612],[-0.104599,51.510579],[-0.104601,51.510537],[-0.104603,51.510496],[-0.104604,51.510466],[-0.104606,51.51041],[-0.104608,51.510355],[-0.104608,51.510307],[-0.104613,51.510261],[-0.104626,51.510235],[-0.104679,51.510227],[-0.10472,51.5102],[-0.104668,51.510177],[-0.104627,51.510172],[-0.104617,51.510125],[-0.104617,51.51005],[-0.104622,51.510013],[-0.104646,51.509826],[-0.105329,51.50983],[-0.105399,51.509831],[-0.105444,51.509832],[-0.106043,51.509847],[-0.106156,51.509848],[-0.106402,51.509849],[-0.106613,51.50985],[-0.107838,51.509857],[-0.108133,51.509851],[-0.108272,51.509847],[-0.109057,51.509829],[-0.109132,51.509827],[-0.109507,51.509818],[-0.109711,51.509812],[-0.110111,51.509802],[-0.110533,51.509782],[-0.110692,51.509774],[-0.110791,51.509769],[-0.110935,51.509762],[-0.111029,51.509759],[-0.111216,51.509752],[-0.111434,51.509744],[-0.111511,51.510426],[-0.111548,51.510757],[-0.111549,51.510775],[-0.11155,51.510795],[-0.111551,51.510803],[-0.111552,51.510825],[-0.111531,51.510952],[-0.111531,51.510968],[-0.111529,51.511058],[-0.111529,51.511074],[-0.111528,51.511114],[-0.111524,51.511344],[-0.111478,51.511655],[-0.111486,51.51167],[-0.111521,51.511733],[-0.111538,51.51176],[-0.111657,51.511941],[-0.111696,51.512001],[-0.111899,51.511949],[-0.112042,51.51212],[-0.112046,51.512124],[-0.112165,51.512268],[-0.112047,51.512325],[-0.111995,51.51235],[-0.112079,51.512453],[-0.112098,51.512477],[-0.1121,51.512481],[-0.112154,51.512548],[-0.112196,51.5126],[-0.112289,51.51258],[-0.11235,51.512567],[-0.112363,51.512564],[-0.112372,51.512562],[-0.112379,51.512567],[-0.112478,51.512639],[-0.112485,51.512644],[-0.112471,51.512652],[-0.112449,51.512664],[-0.112432,51.512674],[-0.112395,51.512694],[-0.112363,51.512711],[-0.112341,51.512723],[-0.112119,51.512845],[-0.112125,51.512853],[-0.11217,51.512912],[-0.112241,51.513007],[-0.112244,51.513011],[-0.112197,51.513024],[-0.11209,51.513054],[-0.112005,51.513077],[-0.111969,51.513087],[-0.111897,51.513107],[-0.111883,51.513111],[-0.11175,51.513148],[-0.111696,51.513163],[-0.111726,51.513251],[-0.111781,51.513419],[-0.111786,51.513435],[-0.111888,51.513633],[-0.111901,51.51366],[-0.111739,51.513687],[-0.111732,51.513688],[-0.111627,51.513705],[-0.111531,51.513722],[-0.111349,51.513752],[-0.111208,51.513776],[-0.111183,51.51378],[-0.111104,51.513793],[-0.111023,51.513807],[-0.111029,51.513825],[-0.111031,51.513828],[-0.111033,51.513835],[-0.111061,51.513918],[-0.111095,51.514018],[-0.111182,51.514272],[-0.111254,51.514486],[-0.111256,51.51449],[-0.111274,51.514533],[-0.111385,51.514796],[-0.111434,51.514943],[-0.111527,51.515224],[-0.111541,51.51526],[-0.11155,51.515285],[-0.111554,51.515291],[-0.111567,51.515315],[-0.111835,51.515785],[-0.111839,51.515792],[-0.111844,51.515801],[-0.111896,51.515879],[-0.111915,51.515908],[-0.111919,51.515914],[-0.111995,51.516029],[-0.112024,51.516074],[-0.112108,51.5162],[-0.112129,51.516225],[-0.112153,51.516252],[-0.112217,51.516326],[-0.11225,51.516364],[-0.112318,51.516443],[-0.112541,51.516701],[-0.112723,51.516912],[-0.112732,51.516924],[-0.112777,51.516975],[-0.112814,51.517019],[-0.112836,51.517044],[-0.112864,51.517071],[-0.112868,51.517075],[-0.112975,51.517179],[-0.113006,51.517209],[-0.113042,51.517244],[-0.113079,51.517281],[-0.113225,51.517422],[-0.113289,51.517485],[-0.113398,51.517591],[-0.113449,51.51764],[-0.113463,51.517654],[-0.113475,51.517669],[-0.113535,51.517742],[-0.113574,51.51779],[-0.113651,51.517883],[-0.113719,51.517966],[-0.113742,51.517994],[-0.113746,51.518001],[-0.113812,51.518112],[-0.113813,51.518115],[-0.113816,51.518119],[-0.113795,51.518221],[-0.113654,51.518223],[-0.113467,51.518226],[-0.113332,51.518228],[-0.113096,51.518231],[-0.112943,51.518234],[-0.11292,51.518234],[-0.112811,51.518236],[-0.112704,51.518232],[-0.112458,51.518223],[-0.112266,51.518216],[-0.112241,51.518215],[-0.112171,51.518213],[-0.11179,51.518199],[-0.111728,51.518197],[-0.111645,51.518194],[-0.111475,51.518177],[-0.111268,51.518157],[-0.1112,51.51815],[-0.111063,51.518137],[-0.11105,51.518136],[-0.110989,51.51813],[-0.110984,51.518129],[-0.110779,51.518109],[-0.110707,51.518102],[-0.110646,51.518097],[-0.110627,51.518094],[-0.110451,51.518077],[-0.110269,51.518049],[-0.110083,51.518019],[-0.109507,51.517928],[-0.109465,51.517921],[-0.109381,51.517907],[-0.108964,51.517834],[-0.108953,51.517833],[-0.108894,51.517822],[-0.108872,51.517818],[-0.108767,51.517807],[-0.108473,51.517776],[-0.108209,51.517747],[-0.108095,51.517737],[-0.108044,51.517732],[-0.108025,51.51773],[-0.107829,51.517711],[-0.107812,51.517715],[-0.107783,51.517722],[-0.107754,51.517729],[-0.107695,51.517744],[-0.107688,51.517745],[-0.107626,51.51776],[-0.107552,51.517778],[-0.107512,51.517788],[-0.107448,51.517804],[-0.107428,51.51783],[-0.107399,51.517871],[-0.10738,51.517896],[-0.107286,51.517924],[-0.107231,51.51794],[-0.107218,51.517944],[-0.107212,51.517946],[-0.10718,51.517955],[-0.106659,51.518108],[-0.106629,51.518117],[-0.106191,51.518245],[-0.105968,51.518322],[-0.105959,51.518325],[-0.105922,51.518337],[-0.105903,51.518344],[-0.105806,51.518378],[-0.105507,51.51848],[-0.105482,51.518489],[-0.10539,51.51852],[-0.10532,51.518545],[-0.105303,51.518549],[-0.105108,51.518606],[-0.105083,51.518614],[-0.104896,51.518668],[-0.104816,51.518692],[-0.104627,51.518746],[-0.104256,51.518854],[-0.103209,51.519159],[-0.103146,51.51918],[-0.103004,51.519225],[-0.103,51.519227],[-0.102885,51.519263],[-0.102804,51.51929],[-0.102509,51.519384],[-0.102503,51.519386],[-0.102122,51.519508],[-0.102063,51.519527],[-0.102021,51.51954],[-0.101956,51.519561],[-0.101935,51.519568],[-0.101932,51.519569],[-0.101795,51.519613],[-0.101652,51.519658],[-0.101601,51.519674],[-0.101598,51.519675],[-0.101564,51.519685],[-0.101363,51.519745],[-0.101216,51.51979],[-0.100943,51.519872],[-0.100918,51.51988],[-0.100703,51.519944],[-0.100529,51.519997],[-0.100293,51.520068],[-0.100273,51.520074],[-0.100204,51.520093],[-0.100204,51.520093],[-0.100095,51.520123],[-0.09991,51.520173],[-0.099696,51.520232],[-0.099678,51.520237],[-0.099634,51.520249],[-0.099473,51.520293],[-0.099391,51.520316],[-0.09935,51.520327],[-0.099236,51.520358],[-0.09923,51.520359],[-0.099045,51.520405],[-0.098989,51.520419],[-0.098716,51.520486],[-0.098701,51.52049],[-0.09864,51.520505],[-0.0986,51.520515],[-0.098498,51.52054],[-0.098457,51.520495],[-0.098427,51.520432],[-0.0984,51.520372],[-0.098393,51.520358],[-0.098378,51.520325],[-0.098347,51.520273],[-0.09833,51.52025],[-0.09829,51.5202],[-0.098399,51.520177],[-0.098438,51.520169],[-0.098482,51.52016],[-0.098622,51.520129],[-0.098786,51.520091],[-0.098767,51.520061],[-0.098751,51.520035],[-0.098726,51.519997],[-0.098725,51.519994],[-0.098658,51.519883],[-0.098645,51.519861],[-0.098639,51.51985],[-0.098626,51.519829],[-0.098611,51.519809],[-0.098588,51.519781],[-0.098572,51.519761],[-0.098563,51.519751]]]}}]}